{
"type": "FeatureCollection",
"crs": { "type": "name", "properties": { "name": "urn:ogc:def:crs:EPSG::3035" } },
"features": [
{ "type": "Feature", "properties": { "ID": "Bremen_040110000_c1", "GEN": "Bremen", "ARS": "040110000", "LAN": "Bremen", "area": 69.805, "centroid": "POINT (4245719.610582 3329692.444429)", "DH_demand": 611716.40172113839, "total_demand_cells": 612843.08541464806, "total_demand_area": 2105895.0, "share_DH": 16.100553342879351, "heat_density_DH": 8.7632175592169403, "heat_density": 30.168254423035606, "DH_supplied_households": 38794.0, "DH_cells": [ [ 4241950, 3324750 ], [ 4241750, 3324850 ], [ 4241950, 3324850 ], [ 4242050, 3324850 ], [ 4243450, 3324850 ], [ 4242150, 3324950 ], [ 4242750, 3324950 ], [ 4242850, 3324950 ], [ 4242950, 3324950 ], [ 4243650, 3324950 ], [ 4241750, 3325050 ], [ 4241850, 3325050 ], [ 4242050, 3325050 ], [ 4242350, 3325050 ], [ 4242450, 3325050 ], [ 4242550, 3325050 ], [ 4242650, 3325050 ], [ 4242750, 3325050 ], [ 4242850, 3325050 ], [ 4242950, 3325050 ], [ 4243050, 3325050 ], [ 4243150, 3325050 ], [ 4241750, 3325150 ], [ 4242550, 3325150 ], [ 4242750, 3325150 ], [ 4242850, 3325150 ], [ 4242950, 3325150 ], [ 4243050, 3325150 ], [ 4243850, 3325150 ], [ 4241550, 3325250 ], [ 4242150, 3325250 ], [ 4242350, 3325250 ], [ 4242450, 3325250 ], [ 4242750, 3325250 ], [ 4242850, 3325250 ], [ 4242950, 3325250 ], [ 4243050, 3325250 ], [ 4243150, 3325250 ], [ 4243250, 3325250 ], [ 4243550, 3325250 ], [ 4243850, 3325250 ], [ 4241350, 3325350 ], [ 4242550, 3325350 ], [ 4242750, 3325350 ], [ 4242850, 3325350 ], [ 4242950, 3325350 ], [ 4243050, 3325350 ], [ 4243150, 3325350 ], [ 4243250, 3325350 ], [ 4243350, 3325350 ], [ 4242050, 3325450 ], [ 4242550, 3325450 ], [ 4242650, 3325450 ], [ 4242750, 3325450 ], [ 4242850, 3325450 ], [ 4242950, 3325450 ], [ 4243050, 3325450 ], [ 4243850, 3325450 ], [ 4242150, 3325550 ], [ 4242250, 3325550 ], [ 4242850, 3325550 ], [ 4242950, 3325550 ], [ 4243050, 3325550 ], [ 4243150, 3325550 ], [ 4243250, 3325550 ], [ 4243350, 3325550 ], [ 4243750, 3325550 ], [ 4243950, 3325550 ], [ 4241950, 3325650 ], [ 4242450, 3325650 ], [ 4242850, 3325650 ], [ 4242950, 3325650 ], [ 4243050, 3325650 ], [ 4243150, 3325650 ], [ 4243850, 3325650 ], [ 4241250, 3325750 ], [ 4241950, 3325750 ], [ 4242050, 3325750 ], [ 4242250, 3325750 ], [ 4242350, 3325750 ], [ 4242950, 3325750 ], [ 4243050, 3325750 ], [ 4243150, 3325750 ], [ 4250150, 3325750 ], [ 4250250, 3325750 ], [ 4250550, 3325750 ], [ 4250750, 3325750 ], [ 4242050, 3325850 ], [ 4242950, 3325850 ], [ 4243050, 3325850 ], [ 4243250, 3325850 ], [ 4243350, 3325850 ], [ 4250550, 3325850 ], [ 4241950, 3325950 ], [ 4242050, 3325950 ], [ 4242150, 3325950 ], [ 4242650, 3325950 ], [ 4242950, 3325950 ], [ 4243450, 3325950 ], [ 4243950, 3325950 ], [ 4244050, 3325950 ], [ 4244150, 3325950 ], [ 4244250, 3325950 ], [ 4248350, 3325950 ], [ 4250250, 3325950 ], [ 4250850, 3325950 ], [ 4242150, 3326050 ], [ 4242650, 3326050 ], [ 4243850, 3326050 ], [ 4248250, 3326050 ], [ 4248350, 3326050 ], [ 4250050, 3326050 ], [ 4250250, 3326050 ], [ 4250950, 3326050 ], [ 4242150, 3326150 ], [ 4242450, 3326150 ], [ 4244050, 3326150 ], [ 4248150, 3326150 ], [ 4248850, 3326150 ], [ 4249050, 3326150 ], [ 4249150, 3326150 ], [ 4249250, 3326150 ], [ 4249350, 3326150 ], [ 4250050, 3326150 ], [ 4250950, 3326150 ], [ 4241750, 3326250 ], [ 4241850, 3326250 ], [ 4242450, 3326250 ], [ 4242550, 3326250 ], [ 4244350, 3326250 ], [ 4248850, 3326250 ], [ 4249050, 3326250 ], [ 4249250, 3326250 ], [ 4249450, 3326250 ], [ 4249550, 3326250 ], [ 4249650, 3326250 ], [ 4250050, 3326250 ], [ 4250350, 3326250 ], [ 4250550, 3326250 ], [ 4241250, 3326350 ], [ 4241750, 3326350 ], [ 4241850, 3326350 ], [ 4242350, 3326350 ], [ 4242450, 3326350 ], [ 4243750, 3326350 ], [ 4244350, 3326350 ], [ 4247750, 3326350 ], [ 4247850, 3326350 ], [ 4249350, 3326350 ], [ 4249550, 3326350 ], [ 4249650, 3326350 ], [ 4249750, 3326350 ], [ 4250850, 3326350 ], [ 4242150, 3326450 ], [ 4242250, 3326450 ], [ 4243050, 3326450 ], [ 4243550, 3326450 ], [ 4243650, 3326450 ], [ 4243750, 3326450 ], [ 4243850, 3326450 ], [ 4247250, 3326450 ], [ 4247450, 3326450 ], [ 4248850, 3326450 ], [ 4248950, 3326450 ], [ 4249250, 3326450 ], [ 4242350, 3326550 ], [ 4243850, 3326550 ], [ 4244250, 3326550 ], [ 4247150, 3326550 ], [ 4249050, 3326550 ], [ 4249250, 3326550 ], [ 4241550, 3326650 ], [ 4243550, 3326650 ], [ 4243750, 3326650 ], [ 4243850, 3326650 ], [ 4243950, 3326650 ], [ 4244050, 3326650 ], [ 4244850, 3326650 ], [ 4246550, 3326650 ], [ 4246650, 3326650 ], [ 4247350, 3326650 ], [ 4248250, 3326650 ], [ 4249150, 3326650 ], [ 4243650, 3326750 ], [ 4243850, 3326750 ], [ 4244850, 3326750 ], [ 4246850, 3326750 ], [ 4247050, 3326750 ], [ 4248550, 3326750 ], [ 4248650, 3326750 ], [ 4248850, 3326750 ], [ 4250250, 3326750 ], [ 4244850, 3326850 ], [ 4246350, 3326850 ], [ 4247150, 3326850 ], [ 4247250, 3326850 ], [ 4247350, 3326850 ], [ 4248150, 3326850 ], [ 4248350, 3326850 ], [ 4248450, 3326850 ], [ 4248550, 3326850 ], [ 4248650, 3326850 ], [ 4248750, 3326850 ], [ 4248850, 3326850 ], [ 4250250, 3326850 ], [ 4241950, 3326950 ], [ 4244450, 3326950 ], [ 4246250, 3326950 ], [ 4246450, 3326950 ], [ 4246750, 3326950 ], [ 4247050, 3326950 ], [ 4247350, 3326950 ], [ 4248450, 3326950 ], [ 4248550, 3326950 ], [ 4250250, 3326950 ], [ 4250650, 3326950 ], [ 4244550, 3327050 ], [ 4244650, 3327050 ], [ 4246850, 3327050 ], [ 4246950, 3327050 ], [ 4247250, 3327050 ], [ 4247350, 3327050 ], [ 4247450, 3327050 ], [ 4248050, 3327050 ], [ 4250250, 3327050 ], [ 4247050, 3327150 ], [ 4250350, 3327150 ], [ 4244150, 3327250 ], [ 4247150, 3327250 ], [ 4247250, 3327250 ], [ 4247450, 3327250 ], [ 4250350, 3327250 ], [ 4244150, 3327350 ], [ 4247050, 3327350 ], [ 4247250, 3327350 ], [ 4247350, 3327350 ], [ 4250350, 3327350 ], [ 4244150, 3327450 ], [ 4244450, 3327450 ], [ 4246550, 3327450 ], [ 4246650, 3327450 ], [ 4246850, 3327450 ], [ 4250350, 3327450 ], [ 4241950, 3327550 ], [ 4242050, 3327550 ], [ 4242150, 3327550 ], [ 4243850, 3327550 ], [ 4243950, 3327550 ], [ 4246550, 3327550 ], [ 4246650, 3327550 ], [ 4250450, 3327550 ], [ 4250950, 3327550 ], [ 4241850, 3327650 ], [ 4242350, 3327650 ], [ 4243050, 3327650 ], [ 4246350, 3327650 ], [ 4246650, 3327650 ], [ 4246950, 3327650 ], [ 4247050, 3327650 ], [ 4250450, 3327650 ], [ 4250550, 3327650 ], [ 4242950, 3327750 ], [ 4243050, 3327750 ], [ 4243150, 3327750 ], [ 4243650, 3327750 ], [ 4246350, 3327750 ], [ 4246550, 3327750 ], [ 4246650, 3327750 ], [ 4246750, 3327750 ], [ 4246950, 3327750 ], [ 4247050, 3327750 ], [ 4247350, 3327750 ], [ 4247850, 3327750 ], [ 4247950, 3327750 ], [ 4250450, 3327750 ], [ 4250550, 3327750 ], [ 4250650, 3327750 ], [ 4250750, 3327750 ], [ 4241750, 3327850 ], [ 4241950, 3327850 ], [ 4242950, 3327850 ], [ 4243050, 3327850 ], [ 4243150, 3327850 ], [ 4243750, 3327850 ], [ 4246650, 3327850 ], [ 4246750, 3327850 ], [ 4246950, 3327850 ], [ 4247050, 3327850 ], [ 4248250, 3327850 ], [ 4250650, 3327850 ], [ 4250950, 3327850 ], [ 4241950, 3327950 ], [ 4242050, 3327950 ], [ 4243150, 3327950 ], [ 4246350, 3327950 ], [ 4246650, 3327950 ], [ 4246750, 3327950 ], [ 4248550, 3327950 ], [ 4250950, 3327950 ], [ 4241550, 3328050 ], [ 4241950, 3328050 ], [ 4243450, 3328050 ], [ 4246350, 3328050 ], [ 4246450, 3328050 ], [ 4246650, 3328050 ], [ 4248550, 3328050 ], [ 4250050, 3328050 ], [ 4250450, 3328050 ], [ 4250850, 3328050 ], [ 4251050, 3328050 ], [ 4246350, 3328150 ], [ 4246450, 3328150 ], [ 4247850, 3328150 ], [ 4249850, 3328150 ], [ 4249950, 3328150 ], [ 4250050, 3328150 ], [ 4250250, 3328150 ], [ 4250350, 3328150 ], [ 4240350, 3328250 ], [ 4240450, 3328250 ], [ 4241350, 3328250 ], [ 4241450, 3328250 ], [ 4246250, 3328250 ], [ 4246450, 3328250 ], [ 4246550, 3328250 ], [ 4248250, 3328250 ], [ 4249650, 3328250 ], [ 4249750, 3328250 ], [ 4249850, 3328250 ], [ 4240250, 3328350 ], [ 4240350, 3328350 ], [ 4240750, 3328350 ], [ 4248150, 3328350 ], [ 4248250, 3328350 ], [ 4248350, 3328350 ], [ 4248450, 3328350 ], [ 4248950, 3328350 ], [ 4249050, 3328350 ], [ 4250150, 3328350 ], [ 4251250, 3328350 ], [ 4251350, 3328350 ], [ 4240250, 3328450 ], [ 4240650, 3328450 ], [ 4240750, 3328450 ], [ 4240850, 3328450 ], [ 4241250, 3328450 ], [ 4246350, 3328450 ], [ 4248850, 3328450 ], [ 4249050, 3328450 ], [ 4249150, 3328450 ], [ 4249950, 3328450 ], [ 4250550, 3328450 ], [ 4251250, 3328450 ], [ 4251350, 3328450 ], [ 4240250, 3328550 ], [ 4240450, 3328550 ], [ 4240550, 3328550 ], [ 4240650, 3328550 ], [ 4240750, 3328550 ], [ 4241550, 3328550 ], [ 4246650, 3328550 ], [ 4246950, 3328550 ], [ 4249550, 3328550 ], [ 4249750, 3328550 ], [ 4249850, 3328550 ], [ 4249950, 3328550 ], [ 4250350, 3328550 ], [ 4250450, 3328550 ], [ 4250550, 3328550 ], [ 4250750, 3328550 ], [ 4250850, 3328550 ], [ 4251250, 3328550 ], [ 4251350, 3328550 ], [ 4251450, 3328550 ], [ 4239350, 3328650 ], [ 4240350, 3328650 ], [ 4240450, 3328650 ], [ 4240550, 3328650 ], [ 4240650, 3328650 ], [ 4245850, 3328650 ], [ 4246450, 3328650 ], [ 4246650, 3328650 ], [ 4249550, 3328650 ], [ 4249650, 3328650 ], [ 4250150, 3328650 ], [ 4250350, 3328650 ], [ 4250450, 3328650 ], [ 4250550, 3328650 ], [ 4250650, 3328650 ], [ 4250750, 3328650 ], [ 4250850, 3328650 ], [ 4240450, 3328750 ], [ 4241150, 3328750 ], [ 4241350, 3328750 ], [ 4245150, 3328750 ], [ 4246650, 3328750 ], [ 4246750, 3328750 ], [ 4246850, 3328750 ], [ 4249450, 3328750 ], [ 4250150, 3328750 ], [ 4250250, 3328750 ], [ 4250350, 3328750 ], [ 4250550, 3328750 ], [ 4250650, 3328750 ], [ 4250750, 3328750 ], [ 4250850, 3328750 ], [ 4245450, 3328850 ], [ 4246250, 3328850 ], [ 4246350, 3328850 ], [ 4249250, 3328850 ], [ 4249350, 3328850 ], [ 4250150, 3328850 ], [ 4250250, 3328850 ], [ 4250350, 3328850 ], [ 4250450, 3328850 ], [ 4250550, 3328850 ], [ 4250750, 3328850 ], [ 4250850, 3328850 ], [ 4250950, 3328850 ], [ 4240050, 3328950 ], [ 4240850, 3328950 ], [ 4245350, 3328950 ], [ 4245750, 3328950 ], [ 4246450, 3328950 ], [ 4246550, 3328950 ], [ 4246650, 3328950 ], [ 4248950, 3328950 ], [ 4249050, 3328950 ], [ 4250150, 3328950 ], [ 4250250, 3328950 ], [ 4250350, 3328950 ], [ 4250450, 3328950 ], [ 4250550, 3328950 ], [ 4250650, 3328950 ], [ 4250750, 3328950 ], [ 4250850, 3328950 ], [ 4250950, 3328950 ], [ 4240150, 3329050 ], [ 4240550, 3329050 ], [ 4245750, 3329050 ], [ 4246450, 3329050 ], [ 4246550, 3329050 ], [ 4249050, 3329050 ], [ 4249150, 3329050 ], [ 4250150, 3329050 ], [ 4250250, 3329050 ], [ 4250350, 3329050 ], [ 4250450, 3329050 ], [ 4250550, 3329050 ], [ 4250750, 3329050 ], [ 4250950, 3329050 ], [ 4251050, 3329050 ], [ 4240950, 3329150 ], [ 4241050, 3329150 ], [ 4246150, 3329150 ], [ 4246350, 3329150 ], [ 4246450, 3329150 ], [ 4246950, 3329150 ], [ 4249050, 3329150 ], [ 4249150, 3329150 ], [ 4249650, 3329150 ], [ 4250150, 3329150 ], [ 4250250, 3329150 ], [ 4250350, 3329150 ], [ 4250450, 3329150 ], [ 4250550, 3329150 ], [ 4250650, 3329150 ], [ 4250750, 3329150 ], [ 4250850, 3329150 ], [ 4250950, 3329150 ], [ 4251050, 3329150 ], [ 4239350, 3329250 ], [ 4240150, 3329250 ], [ 4240250, 3329250 ], [ 4240450, 3329250 ], [ 4244850, 3329250 ], [ 4245050, 3329250 ], [ 4245350, 3329250 ], [ 4245450, 3329250 ], [ 4245550, 3329250 ], [ 4245950, 3329250 ], [ 4247050, 3329250 ], [ 4249650, 3329250 ], [ 4249750, 3329250 ], [ 4249850, 3329250 ], [ 4249950, 3329250 ], [ 4250050, 3329250 ], [ 4250150, 3329250 ], [ 4250250, 3329250 ], [ 4250350, 3329250 ], [ 4250450, 3329250 ], [ 4250550, 3329250 ], [ 4250650, 3329250 ], [ 4250750, 3329250 ], [ 4250850, 3329250 ], [ 4250950, 3329250 ], [ 4251050, 3329250 ], [ 4239450, 3329350 ], [ 4240250, 3329350 ], [ 4240350, 3329350 ], [ 4240450, 3329350 ], [ 4240850, 3329350 ], [ 4245050, 3329350 ], [ 4245150, 3329350 ], [ 4245250, 3329350 ], [ 4245350, 3329350 ], [ 4245850, 3329350 ], [ 4245950, 3329350 ], [ 4246050, 3329350 ], [ 4246850, 3329350 ], [ 4248950, 3329350 ], [ 4249650, 3329350 ], [ 4249950, 3329350 ], [ 4250050, 3329350 ], [ 4250150, 3329350 ], [ 4250350, 3329350 ], [ 4250450, 3329350 ], [ 4250550, 3329350 ], [ 4250650, 3329350 ], [ 4250750, 3329350 ], [ 4251450, 3329350 ], [ 4240450, 3329450 ], [ 4240650, 3329450 ], [ 4243150, 3329450 ], [ 4243550, 3329450 ], [ 4244650, 3329450 ], [ 4244750, 3329450 ], [ 4245050, 3329450 ], [ 4245150, 3329450 ], [ 4245850, 3329450 ], [ 4245950, 3329450 ], [ 4246050, 3329450 ], [ 4246150, 3329450 ], [ 4246450, 3329450 ], [ 4249450, 3329450 ], [ 4249650, 3329450 ], [ 4249750, 3329450 ], [ 4249850, 3329450 ], [ 4249950, 3329450 ], [ 4250050, 3329450 ], [ 4250250, 3329450 ], [ 4250350, 3329450 ], [ 4250450, 3329450 ], [ 4250750, 3329450 ], [ 4250850, 3329450 ], [ 4239850, 3329550 ], [ 4242950, 3329550 ], [ 4243750, 3329550 ], [ 4244750, 3329550 ], [ 4245750, 3329550 ], [ 4245850, 3329550 ], [ 4246050, 3329550 ], [ 4246150, 3329550 ], [ 4246250, 3329550 ], [ 4249250, 3329550 ], [ 4249350, 3329550 ], [ 4249450, 3329550 ], [ 4249550, 3329550 ], [ 4249650, 3329550 ], [ 4249750, 3329550 ], [ 4249950, 3329550 ], [ 4250050, 3329550 ], [ 4250150, 3329550 ], [ 4250250, 3329550 ], [ 4250350, 3329550 ], [ 4250450, 3329550 ], [ 4250550, 3329550 ], [ 4239650, 3329650 ], [ 4239750, 3329650 ], [ 4240750, 3329650 ], [ 4242850, 3329650 ], [ 4243550, 3329650 ], [ 4244750, 3329650 ], [ 4245750, 3329650 ], [ 4245850, 3329650 ], [ 4245950, 3329650 ], [ 4246050, 3329650 ], [ 4246150, 3329650 ], [ 4246250, 3329650 ], [ 4246350, 3329650 ], [ 4249150, 3329650 ], [ 4249250, 3329650 ], [ 4249350, 3329650 ], [ 4249450, 3329650 ], [ 4249550, 3329650 ], [ 4249650, 3329650 ], [ 4249750, 3329650 ], [ 4249850, 3329650 ], [ 4249950, 3329650 ], [ 4250050, 3329650 ], [ 4250150, 3329650 ], [ 4250350, 3329650 ], [ 4250450, 3329650 ], [ 4250550, 3329650 ], [ 4250650, 3329650 ], [ 4239850, 3329750 ], [ 4240550, 3329750 ], [ 4240650, 3329750 ], [ 4241950, 3329750 ], [ 4242550, 3329750 ], [ 4242650, 3329750 ], [ 4242750, 3329750 ], [ 4243050, 3329750 ], [ 4244250, 3329750 ], [ 4245650, 3329750 ], [ 4245750, 3329750 ], [ 4245850, 3329750 ], [ 4245950, 3329750 ], [ 4246050, 3329750 ], [ 4246150, 3329750 ], [ 4246250, 3329750 ], [ 4247350, 3329750 ], [ 4247950, 3329750 ], [ 4249250, 3329750 ], [ 4249350, 3329750 ], [ 4249450, 3329750 ], [ 4249550, 3329750 ], [ 4249650, 3329750 ], [ 4249950, 3329750 ], [ 4250050, 3329750 ], [ 4250150, 3329750 ], [ 4250250, 3329750 ], [ 4250350, 3329750 ], [ 4250450, 3329750 ], [ 4250550, 3329750 ], [ 4250650, 3329750 ], [ 4250750, 3329750 ], [ 4239350, 3329850 ], [ 4240650, 3329850 ], [ 4240750, 3329850 ], [ 4241650, 3329850 ], [ 4241850, 3329850 ], [ 4241950, 3329850 ], [ 4242450, 3329850 ], [ 4243250, 3329850 ], [ 4243350, 3329850 ], [ 4243950, 3329850 ], [ 4244150, 3329850 ], [ 4244250, 3329850 ], [ 4245550, 3329850 ], [ 4245650, 3329850 ], [ 4245750, 3329850 ], [ 4245850, 3329850 ], [ 4245950, 3329850 ], [ 4246050, 3329850 ], [ 4246150, 3329850 ], [ 4246250, 3329850 ], [ 4247450, 3329850 ], [ 4247550, 3329850 ], [ 4247650, 3329850 ], [ 4247750, 3329850 ], [ 4248250, 3329850 ], [ 4248550, 3329850 ], [ 4248950, 3329850 ], [ 4249050, 3329850 ], [ 4249150, 3329850 ], [ 4249250, 3329850 ], [ 4249350, 3329850 ], [ 4249450, 3329850 ], [ 4249550, 3329850 ], [ 4249650, 3329850 ], [ 4249850, 3329850 ], [ 4249950, 3329850 ], [ 4250050, 3329850 ], [ 4250150, 3329850 ], [ 4250250, 3329850 ], [ 4250350, 3329850 ], [ 4250450, 3329850 ], [ 4250550, 3329850 ], [ 4250650, 3329850 ], [ 4250750, 3329850 ], [ 4250850, 3329850 ], [ 4238950, 3329950 ], [ 4240650, 3329950 ], [ 4242750, 3329950 ], [ 4243450, 3329950 ], [ 4243650, 3329950 ], [ 4243750, 3329950 ], [ 4243850, 3329950 ], [ 4243950, 3329950 ], [ 4244150, 3329950 ], [ 4245450, 3329950 ], [ 4245550, 3329950 ], [ 4245650, 3329950 ], [ 4245750, 3329950 ], [ 4245850, 3329950 ], [ 4245950, 3329950 ], [ 4246050, 3329950 ], [ 4246250, 3329950 ], [ 4247450, 3329950 ], [ 4247550, 3329950 ], [ 4248550, 3329950 ], [ 4248650, 3329950 ], [ 4248750, 3329950 ], [ 4248850, 3329950 ], [ 4248950, 3329950 ], [ 4249050, 3329950 ], [ 4249250, 3329950 ], [ 4249450, 3329950 ], [ 4249550, 3329950 ], [ 4249650, 3329950 ], [ 4249850, 3329950 ], [ 4249950, 3329950 ], [ 4250050, 3329950 ], [ 4250450, 3329950 ], [ 4250550, 3329950 ], [ 4250650, 3329950 ], [ 4250750, 3329950 ], [ 4250850, 3329950 ], [ 4238950, 3330050 ], [ 4239650, 3330050 ], [ 4240250, 3330050 ], [ 4242350, 3330050 ], [ 4242650, 3330050 ], [ 4243150, 3330050 ], [ 4243650, 3330050 ], [ 4243750, 3330050 ], [ 4243850, 3330050 ], [ 4243950, 3330050 ], [ 4244450, 3330050 ], [ 4245450, 3330050 ], [ 4245550, 3330050 ], [ 4245650, 3330050 ], [ 4245750, 3330050 ], [ 4245850, 3330050 ], [ 4245950, 3330050 ], [ 4246050, 3330050 ], [ 4246250, 3330050 ], [ 4246350, 3330050 ], [ 4247450, 3330050 ], [ 4248450, 3330050 ], [ 4248550, 3330050 ], [ 4248650, 3330050 ], [ 4248750, 3330050 ], [ 4248850, 3330050 ], [ 4249250, 3330050 ], [ 4249350, 3330050 ], [ 4249450, 3330050 ], [ 4249550, 3330050 ], [ 4249650, 3330050 ], [ 4249850, 3330050 ], [ 4249950, 3330050 ], [ 4250050, 3330050 ], [ 4250150, 3330050 ], [ 4250250, 3330050 ], [ 4250350, 3330050 ], [ 4250450, 3330050 ], [ 4250550, 3330050 ], [ 4250650, 3330050 ], [ 4250750, 3330050 ], [ 4250850, 3330050 ], [ 4250950, 3330050 ], [ 4238750, 3330150 ], [ 4240550, 3330150 ], [ 4241950, 3330150 ], [ 4242350, 3330150 ], [ 4242750, 3330150 ], [ 4243650, 3330150 ], [ 4243950, 3330150 ], [ 4244050, 3330150 ], [ 4244150, 3330150 ], [ 4244350, 3330150 ], [ 4244450, 3330150 ], [ 4245450, 3330150 ], [ 4245550, 3330150 ], [ 4245650, 3330150 ], [ 4245750, 3330150 ], [ 4245850, 3330150 ], [ 4245950, 3330150 ], [ 4246050, 3330150 ], [ 4246150, 3330150 ], [ 4246250, 3330150 ], [ 4246350, 3330150 ], [ 4247550, 3330150 ], [ 4247950, 3330150 ], [ 4248450, 3330150 ], [ 4248550, 3330150 ], [ 4248650, 3330150 ], [ 4248750, 3330150 ], [ 4248850, 3330150 ], [ 4248950, 3330150 ], [ 4249250, 3330150 ], [ 4249350, 3330150 ], [ 4249450, 3330150 ], [ 4249550, 3330150 ], [ 4249650, 3330150 ], [ 4249950, 3330150 ], [ 4250150, 3330150 ], [ 4250250, 3330150 ], [ 4250350, 3330150 ], [ 4250450, 3330150 ], [ 4250650, 3330150 ], [ 4250750, 3330150 ], [ 4250850, 3330150 ], [ 4250950, 3330150 ], [ 4240650, 3330250 ], [ 4242550, 3330250 ], [ 4242950, 3330250 ], [ 4243550, 3330250 ], [ 4243950, 3330250 ], [ 4244050, 3330250 ], [ 4244150, 3330250 ], [ 4244250, 3330250 ], [ 4244350, 3330250 ], [ 4245650, 3330250 ], [ 4245750, 3330250 ], [ 4245850, 3330250 ], [ 4245950, 3330250 ], [ 4246050, 3330250 ], [ 4246150, 3330250 ], [ 4246250, 3330250 ], [ 4246450, 3330250 ], [ 4246550, 3330250 ], [ 4246650, 3330250 ], [ 4246750, 3330250 ], [ 4247150, 3330250 ], [ 4247250, 3330250 ], [ 4247350, 3330250 ], [ 4247650, 3330250 ], [ 4247750, 3330250 ], [ 4247850, 3330250 ], [ 4247950, 3330250 ], [ 4248050, 3330250 ], [ 4248450, 3330250 ], [ 4248550, 3330250 ], [ 4248650, 3330250 ], [ 4248750, 3330250 ], [ 4249150, 3330250 ], [ 4249250, 3330250 ], [ 4249350, 3330250 ], [ 4249450, 3330250 ], [ 4249550, 3330250 ], [ 4249750, 3330250 ], [ 4249850, 3330250 ], [ 4250250, 3330250 ], [ 4250350, 3330250 ], [ 4250550, 3330250 ], [ 4250650, 3330250 ], [ 4250750, 3330250 ], [ 4250850, 3330250 ], [ 4250950, 3330250 ], [ 4241950, 3330350 ], [ 4243350, 3330350 ], [ 4243450, 3330350 ], [ 4243550, 3330350 ], [ 4245250, 3330350 ], [ 4245350, 3330350 ], [ 4245650, 3330350 ], [ 4245750, 3330350 ], [ 4245850, 3330350 ], [ 4245950, 3330350 ], [ 4246450, 3330350 ], [ 4246550, 3330350 ], [ 4246650, 3330350 ], [ 4246750, 3330350 ], [ 4247050, 3330350 ], [ 4247150, 3330350 ], [ 4247250, 3330350 ], [ 4247350, 3330350 ], [ 4247550, 3330350 ], [ 4247650, 3330350 ], [ 4247750, 3330350 ], [ 4247850, 3330350 ], [ 4247950, 3330350 ], [ 4248050, 3330350 ], [ 4248150, 3330350 ], [ 4248450, 3330350 ], [ 4248550, 3330350 ], [ 4248650, 3330350 ], [ 4248750, 3330350 ], [ 4248850, 3330350 ], [ 4249250, 3330350 ], [ 4249350, 3330350 ], [ 4249450, 3330350 ], [ 4249550, 3330350 ], [ 4249650, 3330350 ], [ 4249750, 3330350 ], [ 4249850, 3330350 ], [ 4250150, 3330350 ], [ 4250250, 3330350 ], [ 4250350, 3330350 ], [ 4250450, 3330350 ], [ 4250550, 3330350 ], [ 4250650, 3330350 ], [ 4250750, 3330350 ], [ 4241950, 3330450 ], [ 4242850, 3330450 ], [ 4243050, 3330450 ], [ 4243150, 3330450 ], [ 4244250, 3330450 ], [ 4244350, 3330450 ], [ 4244450, 3330450 ], [ 4245250, 3330450 ], [ 4245350, 3330450 ], [ 4245750, 3330450 ], [ 4245850, 3330450 ], [ 4245950, 3330450 ], [ 4246350, 3330450 ], [ 4246450, 3330450 ], [ 4246550, 3330450 ], [ 4246650, 3330450 ], [ 4246750, 3330450 ], [ 4246950, 3330450 ], [ 4247050, 3330450 ], [ 4247150, 3330450 ], [ 4247250, 3330450 ], [ 4247350, 3330450 ], [ 4247450, 3330450 ], [ 4247550, 3330450 ], [ 4247650, 3330450 ], [ 4247750, 3330450 ], [ 4247850, 3330450 ], [ 4247950, 3330450 ], [ 4248050, 3330450 ], [ 4248650, 3330450 ], [ 4248750, 3330450 ], [ 4249150, 3330450 ], [ 4249250, 3330450 ], [ 4249350, 3330450 ], [ 4249450, 3330450 ], [ 4249550, 3330450 ], [ 4249650, 3330450 ], [ 4249750, 3330450 ], [ 4249850, 3330450 ], [ 4250050, 3330450 ], [ 4250150, 3330450 ], [ 4250250, 3330450 ], [ 4250450, 3330450 ], [ 4250550, 3330450 ], [ 4239150, 3330550 ], [ 4241150, 3330550 ], [ 4242050, 3330550 ], [ 4242550, 3330550 ], [ 4242850, 3330550 ], [ 4242950, 3330550 ], [ 4243050, 3330550 ], [ 4243150, 3330550 ], [ 4244050, 3330550 ], [ 4244450, 3330550 ], [ 4244550, 3330550 ], [ 4245150, 3330550 ], [ 4245250, 3330550 ], [ 4245350, 3330550 ], [ 4245450, 3330550 ], [ 4245550, 3330550 ], [ 4245950, 3330550 ], [ 4246050, 3330550 ], [ 4246150, 3330550 ], [ 4246250, 3330550 ], [ 4246350, 3330550 ], [ 4246450, 3330550 ], [ 4246550, 3330550 ], [ 4246650, 3330550 ], [ 4246750, 3330550 ], [ 4246950, 3330550 ], [ 4247050, 3330550 ], [ 4247150, 3330550 ], [ 4247250, 3330550 ], [ 4247350, 3330550 ], [ 4247450, 3330550 ], [ 4247550, 3330550 ], [ 4247650, 3330550 ], [ 4247750, 3330550 ], [ 4247850, 3330550 ], [ 4247950, 3330550 ], [ 4248050, 3330550 ], [ 4249250, 3330550 ], [ 4249750, 3330550 ], [ 4249950, 3330550 ], [ 4238150, 3330650 ], [ 4238850, 3330650 ], [ 4241150, 3330650 ], [ 4241550, 3330650 ], [ 4241650, 3330650 ], [ 4243650, 3330650 ], [ 4244450, 3330650 ], [ 4244550, 3330650 ], [ 4244750, 3330650 ], [ 4244850, 3330650 ], [ 4245050, 3330650 ], [ 4245150, 3330650 ], [ 4245250, 3330650 ], [ 4245350, 3330650 ], [ 4245450, 3330650 ], [ 4245550, 3330650 ], [ 4245650, 3330650 ], [ 4245950, 3330650 ], [ 4246250, 3330650 ], [ 4246350, 3330650 ], [ 4246450, 3330650 ], [ 4246550, 3330650 ], [ 4246650, 3330650 ], [ 4246750, 3330650 ], [ 4246950, 3330650 ], [ 4247050, 3330650 ], [ 4247150, 3330650 ], [ 4247250, 3330650 ], [ 4247450, 3330650 ], [ 4247550, 3330650 ], [ 4247650, 3330650 ], [ 4247750, 3330650 ], [ 4247850, 3330650 ], [ 4248050, 3330650 ], [ 4238150, 3330750 ], [ 4238950, 3330750 ], [ 4242450, 3330750 ], [ 4244150, 3330750 ], [ 4244450, 3330750 ], [ 4244550, 3330750 ], [ 4244650, 3330750 ], [ 4244750, 3330750 ], [ 4244850, 3330750 ], [ 4244950, 3330750 ], [ 4245050, 3330750 ], [ 4245150, 3330750 ], [ 4245250, 3330750 ], [ 4245350, 3330750 ], [ 4245450, 3330750 ], [ 4245550, 3330750 ], [ 4245650, 3330750 ], [ 4246250, 3330750 ], [ 4246350, 3330750 ], [ 4246450, 3330750 ], [ 4246550, 3330750 ], [ 4246650, 3330750 ], [ 4246750, 3330750 ], [ 4246950, 3330750 ], [ 4247050, 3330750 ], [ 4247150, 3330750 ], [ 4247250, 3330750 ], [ 4247350, 3330750 ], [ 4247550, 3330750 ], [ 4247650, 3330750 ], [ 4249850, 3330750 ], [ 4250050, 3330750 ], [ 4250150, 3330750 ], [ 4238550, 3330850 ], [ 4238750, 3330850 ], [ 4241250, 3330850 ], [ 4241950, 3330850 ], [ 4243150, 3330850 ], [ 4244350, 3330850 ], [ 4244450, 3330850 ], [ 4244550, 3330850 ], [ 4244650, 3330850 ], [ 4244750, 3330850 ], [ 4244850, 3330850 ], [ 4244950, 3330850 ], [ 4245050, 3330850 ], [ 4245150, 3330850 ], [ 4245250, 3330850 ], [ 4245350, 3330850 ], [ 4245450, 3330850 ], [ 4245550, 3330850 ], [ 4245650, 3330850 ], [ 4246350, 3330850 ], [ 4246450, 3330850 ], [ 4246550, 3330850 ], [ 4246650, 3330850 ], [ 4246950, 3330850 ], [ 4247050, 3330850 ], [ 4247150, 3330850 ], [ 4247250, 3330850 ], [ 4247350, 3330850 ], [ 4247550, 3330850 ], [ 4247650, 3330850 ], [ 4250150, 3330850 ], [ 4238150, 3330950 ], [ 4238750, 3330950 ], [ 4242950, 3330950 ], [ 4243050, 3330950 ], [ 4243550, 3330950 ], [ 4244350, 3330950 ], [ 4244450, 3330950 ], [ 4244550, 3330950 ], [ 4244650, 3330950 ], [ 4244750, 3330950 ], [ 4244850, 3330950 ], [ 4246350, 3330950 ], [ 4246450, 3330950 ], [ 4246550, 3330950 ], [ 4246650, 3330950 ], [ 4246850, 3330950 ], [ 4238050, 3331050 ], [ 4240850, 3331050 ], [ 4241050, 3331050 ], [ 4241250, 3331050 ], [ 4242450, 3331050 ], [ 4242550, 3331050 ], [ 4244050, 3331050 ], [ 4244950, 3331050 ], [ 4245750, 3331050 ], [ 4246050, 3331050 ], [ 4246250, 3331050 ], [ 4246350, 3331050 ], [ 4246450, 3331050 ], [ 4246550, 3331050 ], [ 4246750, 3331050 ], [ 4246850, 3331050 ], [ 4246950, 3331050 ], [ 4247050, 3331050 ], [ 4247150, 3331050 ], [ 4247250, 3331050 ], [ 4247350, 3331050 ], [ 4249950, 3331050 ], [ 4250250, 3331050 ], [ 4237850, 3331150 ], [ 4238050, 3331150 ], [ 4238150, 3331150 ], [ 4238350, 3331150 ], [ 4238450, 3331150 ], [ 4243950, 3331150 ], [ 4245650, 3331150 ], [ 4245850, 3331150 ], [ 4245950, 3331150 ], [ 4246050, 3331150 ], [ 4246150, 3331150 ], [ 4246250, 3331150 ], [ 4246350, 3331150 ], [ 4246450, 3331150 ], [ 4246550, 3331150 ], [ 4246650, 3331150 ], [ 4246750, 3331150 ], [ 4246850, 3331150 ], [ 4246950, 3331150 ], [ 4247050, 3331150 ], [ 4247150, 3331150 ], [ 4247250, 3331150 ], [ 4247350, 3331150 ], [ 4249750, 3331150 ], [ 4249850, 3331150 ], [ 4250250, 3331150 ], [ 4238450, 3331250 ], [ 4244150, 3331250 ], [ 4244250, 3331250 ], [ 4244950, 3331250 ], [ 4245550, 3331250 ], [ 4245650, 3331250 ], [ 4245750, 3331250 ], [ 4245850, 3331250 ], [ 4245950, 3331250 ], [ 4246050, 3331250 ], [ 4246150, 3331250 ], [ 4246250, 3331250 ], [ 4246350, 3331250 ], [ 4246450, 3331250 ], [ 4246550, 3331250 ], [ 4246650, 3331250 ], [ 4246750, 3331250 ], [ 4246850, 3331250 ], [ 4246950, 3331250 ], [ 4247050, 3331250 ], [ 4247150, 3331250 ], [ 4247250, 3331250 ], [ 4247350, 3331250 ], [ 4249450, 3331250 ], [ 4250450, 3331250 ], [ 4244150, 3331350 ], [ 4244550, 3331350 ], [ 4245550, 3331350 ], [ 4245650, 3331350 ], [ 4245850, 3331350 ], [ 4245950, 3331350 ], [ 4246050, 3331350 ], [ 4246150, 3331350 ], [ 4246250, 3331350 ], [ 4246350, 3331350 ], [ 4246450, 3331350 ], [ 4246550, 3331350 ], [ 4246650, 3331350 ], [ 4246750, 3331350 ], [ 4246850, 3331350 ], [ 4246950, 3331350 ], [ 4247050, 3331350 ], [ 4247150, 3331350 ], [ 4247250, 3331350 ], [ 4247650, 3331350 ], [ 4247750, 3331350 ], [ 4247850, 3331350 ], [ 4249250, 3331350 ], [ 4242650, 3331450 ], [ 4243550, 3331450 ], [ 4244450, 3331450 ], [ 4244650, 3331450 ], [ 4245850, 3331450 ], [ 4245950, 3331450 ], [ 4246050, 3331450 ], [ 4246150, 3331450 ], [ 4246250, 3331450 ], [ 4246350, 3331450 ], [ 4246450, 3331450 ], [ 4246650, 3331450 ], [ 4246750, 3331450 ], [ 4246850, 3331450 ], [ 4246950, 3331450 ], [ 4247550, 3331450 ], [ 4247750, 3331450 ], [ 4247850, 3331450 ], [ 4247950, 3331450 ], [ 4237850, 3331550 ], [ 4238050, 3331550 ], [ 4243250, 3331550 ], [ 4244250, 3331550 ], [ 4245850, 3331550 ], [ 4246050, 3331550 ], [ 4246250, 3331550 ], [ 4246350, 3331550 ], [ 4246650, 3331550 ], [ 4246750, 3331550 ], [ 4247750, 3331550 ], [ 4247850, 3331550 ], [ 4249250, 3331550 ], [ 4250050, 3331550 ], [ 4250650, 3331550 ], [ 4237850, 3331650 ], [ 4243950, 3331650 ], [ 4244950, 3331650 ], [ 4247250, 3331650 ], [ 4247850, 3331650 ], [ 4249750, 3331650 ], [ 4242650, 3331750 ], [ 4242750, 3331750 ], [ 4244050, 3331750 ], [ 4244150, 3331750 ], [ 4246650, 3331750 ], [ 4246850, 3331750 ], [ 4248950, 3331750 ], [ 4249650, 3331750 ], [ 4243250, 3331850 ], [ 4244050, 3331850 ], [ 4244150, 3331850 ], [ 4244250, 3331850 ], [ 4244350, 3331850 ], [ 4245250, 3331850 ], [ 4247950, 3331850 ], [ 4250450, 3331850 ], [ 4250550, 3331850 ], [ 4237350, 3331950 ], [ 4242850, 3331950 ], [ 4244150, 3331950 ], [ 4244250, 3331950 ], [ 4245750, 3331950 ], [ 4247150, 3331950 ], [ 4247250, 3331950 ], [ 4248050, 3331950 ], [ 4248750, 3331950 ], [ 4249950, 3331950 ], [ 4243150, 3332050 ], [ 4243350, 3332050 ], [ 4243850, 3332050 ], [ 4243950, 3332050 ], [ 4244150, 3332050 ], [ 4244250, 3332050 ], [ 4246950, 3332050 ], [ 4247050, 3332050 ], [ 4247150, 3332050 ], [ 4247250, 3332050 ], [ 4248550, 3332050 ], [ 4248650, 3332050 ], [ 4249150, 3332050 ], [ 4250250, 3332050 ], [ 4243150, 3332150 ], [ 4243350, 3332150 ], [ 4243750, 3332150 ], [ 4243850, 3332150 ], [ 4244150, 3332150 ], [ 4244250, 3332150 ], [ 4244450, 3332150 ], [ 4245050, 3332150 ], [ 4245250, 3332150 ], [ 4245350, 3332150 ], [ 4246950, 3332150 ], [ 4248150, 3332150 ], [ 4237150, 3332250 ], [ 4243350, 3332250 ], [ 4244150, 3332250 ], [ 4244250, 3332250 ], [ 4247450, 3332250 ], [ 4249050, 3332250 ], [ 4237250, 3332350 ], [ 4237350, 3332350 ], [ 4243050, 3332350 ], [ 4243150, 3332350 ], [ 4243350, 3332350 ], [ 4243750, 3332350 ], [ 4243850, 3332350 ], [ 4246650, 3332350 ], [ 4246850, 3332350 ], [ 4247350, 3332350 ], [ 4247450, 3332350 ], [ 4249350, 3332350 ], [ 4237050, 3332450 ], [ 4243050, 3332450 ], [ 4243150, 3332450 ], [ 4243850, 3332450 ], [ 4243950, 3332450 ], [ 4244750, 3332450 ], [ 4247750, 3332450 ], [ 4237250, 3332550 ], [ 4243050, 3332550 ], [ 4243150, 3332550 ], [ 4243550, 3332550 ], [ 4243750, 3332550 ], [ 4243850, 3332550 ], [ 4243950, 3332550 ], [ 4247850, 3332550 ], [ 4243450, 3332650 ], [ 4243550, 3332650 ], [ 4243650, 3332650 ], [ 4243750, 3332650 ], [ 4243850, 3332650 ], [ 4244750, 3332650 ], [ 4245650, 3332650 ], [ 4246750, 3332650 ], [ 4247150, 3332650 ], [ 4243350, 3332750 ], [ 4243450, 3332750 ], [ 4243550, 3332750 ], [ 4243650, 3332750 ], [ 4243750, 3332750 ], [ 4244750, 3332750 ], [ 4244850, 3332750 ], [ 4245750, 3332750 ], [ 4246850, 3332750 ], [ 4247250, 3332750 ], [ 4243250, 3332850 ], [ 4243350, 3332850 ], [ 4243450, 3332850 ], [ 4244750, 3332850 ], [ 4245450, 3332850 ], [ 4246150, 3332850 ], [ 4246250, 3332850 ], [ 4245750, 3332950 ], [ 4246750, 3332950 ], [ 4246850, 3332950 ], [ 4247650, 3332950 ], [ 4244750, 3333050 ], [ 4244850, 3333050 ], [ 4244950, 3333050 ], [ 4246450, 3333050 ], [ 4248550, 3333050 ], [ 4244850, 3333150 ], [ 4246450, 3333150 ], [ 4246650, 3333150 ], [ 4247150, 3333150 ], [ 4247850, 3333150 ], [ 4244850, 3333250 ], [ 4244950, 3333250 ], [ 4245150, 3333250 ], [ 4245850, 3333250 ], [ 4245950, 3333250 ], [ 4246850, 3333250 ], [ 4247350, 3333250 ], [ 4248150, 3333250 ], [ 4248550, 3333250 ], [ 4244850, 3333350 ], [ 4244950, 3333350 ], [ 4245350, 3333350 ], [ 4245850, 3333350 ], [ 4245950, 3333350 ], [ 4246750, 3333350 ], [ 4248450, 3333350 ], [ 4244850, 3333450 ], [ 4244950, 3333450 ], [ 4245350, 3333450 ], [ 4245450, 3333450 ], [ 4245850, 3333450 ], [ 4245950, 3333450 ], [ 4246150, 3333450 ], [ 4247850, 3333450 ], [ 4244050, 3333550 ], [ 4244650, 3333550 ], [ 4244850, 3333550 ], [ 4244950, 3333550 ], [ 4245450, 3333550 ], [ 4245550, 3333550 ], [ 4245750, 3333550 ], [ 4247450, 3333550 ], [ 4244450, 3333650 ], [ 4244850, 3333650 ], [ 4244950, 3333650 ], [ 4245050, 3333650 ], [ 4245350, 3333650 ], [ 4245450, 3333650 ], [ 4245550, 3333650 ], [ 4245650, 3333650 ], [ 4245750, 3333650 ], [ 4246950, 3333650 ], [ 4247050, 3333650 ], [ 4247350, 3333650 ], [ 4243950, 3333750 ], [ 4246850, 3333750 ], [ 4246950, 3333750 ], [ 4247050, 3333750 ], [ 4246450, 3333850 ], [ 4246550, 3333850 ], [ 4246650, 3333850 ], [ 4246750, 3333850 ], [ 4246850, 3333850 ], [ 4246950, 3333850 ], [ 4247050, 3333850 ], [ 4244050, 3333950 ], [ 4246550, 3333950 ], [ 4246650, 3333950 ], [ 4246750, 3333950 ], [ 4246850, 3333950 ], [ 4246950, 3333950 ], [ 4247050, 3333950 ], [ 4247550, 3333950 ], [ 4247950, 3333950 ], [ 4243750, 3334050 ], [ 4246650, 3334050 ], [ 4246750, 3334050 ], [ 4246850, 3334050 ], [ 4246950, 3334050 ], [ 4247050, 3334050 ], [ 4247150, 3334050 ], [ 4247450, 3334050 ], [ 4246450, 3334150 ], [ 4246550, 3334150 ], [ 4246750, 3334150 ], [ 4246850, 3334150 ], [ 4246950, 3334150 ], [ 4247050, 3334150 ], [ 4247150, 3334150 ], [ 4247250, 3334150 ], [ 4247550, 3334150 ], [ 4247750, 3334150 ], [ 4246450, 3334250 ], [ 4246550, 3334250 ], [ 4246850, 3334250 ], [ 4246950, 3334250 ], [ 4247050, 3334250 ], [ 4247150, 3334250 ], [ 4247250, 3334250 ], [ 4246450, 3334350 ], [ 4246550, 3334350 ], [ 4246650, 3334350 ], [ 4246850, 3334350 ], [ 4246950, 3334350 ], [ 4247050, 3334350 ], [ 4247150, 3334350 ], [ 4247250, 3334350 ], [ 4246550, 3334450 ], [ 4246650, 3334450 ], [ 4246850, 3334450 ], [ 4246950, 3334450 ], [ 4247050, 3334450 ], [ 4247150, 3334450 ], [ 4247250, 3334450 ], [ 4247350, 3334450 ], [ 4247450, 3334450 ], [ 4246550, 3334550 ], [ 4246650, 3334550 ], [ 4246750, 3334550 ], [ 4246850, 3334550 ], [ 4246950, 3334550 ], [ 4247050, 3334550 ], [ 4247150, 3334550 ], [ 4247250, 3334550 ], [ 4247350, 3334550 ], [ 4247450, 3334550 ], [ 4247650, 3334550 ], [ 4246550, 3334650 ], [ 4246650, 3334650 ], [ 4246750, 3334650 ], [ 4246950, 3334650 ], [ 4247150, 3334650 ], [ 4247250, 3334650 ], [ 4247350, 3334650 ], [ 4246650, 3334750 ], [ 4246750, 3334750 ], [ 4246850, 3334750 ], [ 4247150, 3334750 ], [ 4247250, 3334750 ], [ 4246750, 3334850 ], [ 4246850, 3334850 ], [ 4246950, 3334850 ], [ 4247150, 3334850 ], [ 4247250, 3334850 ], [ 4247650, 3334850 ], [ 4248550, 3334850 ], [ 4246750, 3334950 ], [ 4246850, 3334950 ], [ 4246950, 3334950 ], [ 4248250, 3334950 ], [ 4246750, 3335050 ], [ 4246850, 3335050 ], [ 4248350, 3335050 ], [ 4248450, 3335050 ], [ 4247450, 3335150 ], [ 4247550, 3335250 ], [ 4248050, 3335250 ], [ 4247750, 3335350 ], [ 4248150, 3335350 ], [ 4246150, 3335450 ], [ 4246950, 3335450 ], [ 4247150, 3335450 ], [ 4246850, 3335650 ], [ 4248050, 3335650 ], [ 4246650, 3335750 ], [ 4247150, 3335750 ], [ 4247950, 3335750 ], [ 4246750, 3335850 ], [ 4247650, 3335850 ], [ 4246950, 3335950 ], [ 4247050, 3335950 ], [ 4246950, 3336250 ] ] }, "geometry": { "type": "Polygon", "coordinates": [ [ [ 4237250.0, 3332350.0 ], [ 4237050.0, 3332450.0 ], [ 4237250.0, 3332550.0 ], [ 4237350.0, 3332350.0 ], [ 4237850.0, 3331650.0 ], [ 4238050.0, 3331550.0 ], [ 4238150.0, 3331150.0 ], [ 4238350.0, 3331150.0 ], [ 4238450.0, 3331250.0 ], [ 4238750.0, 3330950.0 ], [ 4240250.0, 3330050.0 ], [ 4240550.0, 3330150.0 ], [ 4240650.0, 3330250.0 ], [ 4241150.0, 3330550.0 ], [ 4241150.0, 3330650.0 ], [ 4241250.0, 3330850.0 ], [ 4240850.0, 3331050.0 ], [ 4241050.0, 3331050.0 ], [ 4241250.0, 3331050.0 ], [ 4241550.0, 3330650.0 ], [ 4241650.0, 3330650.0 ], [ 4241950.0, 3330850.0 ], [ 4242050.0, 3330550.0 ], [ 4242450.0, 3330750.0 ], [ 4242450.0, 3331050.0 ], [ 4242550.0, 3331050.0 ], [ 4242650.0, 3331450.0 ], [ 4242650.0, 3331750.0 ], [ 4242750.0, 3331750.0 ], [ 4242850.0, 3331950.0 ], [ 4243150.0, 3332050.0 ], [ 4243150.0, 3332150.0 ], [ 4243150.0, 3332350.0 ], [ 4243050.0, 3332350.0 ], [ 4243050.0, 3332450.0 ], [ 4243050.0, 3332550.0 ], [ 4243150.0, 3332550.0 ], [ 4243250.0, 3332850.0 ], [ 4243350.0, 3332850.0 ], [ 4243450.0, 3332850.0 ], [ 4243750.0, 3334050.0 ], [ 4243950.0, 3333750.0 ], [ 4244050.0, 3333950.0 ], [ 4244450.0, 3333650.0 ], [ 4244650.0, 3333550.0 ], [ 4244850.0, 3333550.0 ], [ 4244850.0, 3333650.0 ], [ 4244950.0, 3333650.0 ], [ 4245050.0, 3333650.0 ], [ 4245350.0, 3333650.0 ], [ 4245450.0, 3333650.0 ], [ 4245550.0, 3333650.0 ], [ 4245650.0, 3333650.0 ], [ 4245750.0, 3333650.0 ], [ 4245750.0, 3333550.0 ], [ 4245850.0, 3333450.0 ], [ 4245950.0, 3333450.0 ], [ 4246150.0, 3333450.0 ], [ 4246450.0, 3333850.0 ], [ 4246550.0, 3333850.0 ], [ 4246550.0, 3333950.0 ], [ 4246650.0, 3333950.0 ], [ 4246650.0, 3334050.0 ], [ 4246550.0, 3334150.0 ], [ 4246450.0, 3334150.0 ], [ 4246450.0, 3334250.0 ], [ 4246450.0, 3334350.0 ], [ 4246550.0, 3334350.0 ], [ 4246550.0, 3334450.0 ], [ 4246550.0, 3334550.0 ], [ 4246550.0, 3334650.0 ], [ 4246650.0, 3334650.0 ], [ 4246650.0, 3334750.0 ], [ 4246750.0, 3334750.0 ], [ 4246750.0, 3334850.0 ], [ 4246750.0, 3334950.0 ], [ 4246750.0, 3335050.0 ], [ 4246150.0, 3335450.0 ], [ 4246650.0, 3335750.0 ], [ 4246750.0, 3335850.0 ], [ 4246950.0, 3336250.0 ], [ 4246950.0, 3335950.0 ], [ 4247050.0, 3335950.0 ], [ 4247150.0, 3335750.0 ], [ 4247650.0, 3335850.0 ], [ 4247950.0, 3335750.0 ], [ 4248050.0, 3335650.0 ], [ 4248150.0, 3335350.0 ], [ 4248050.0, 3335250.0 ], [ 4248250.0, 3334950.0 ], [ 4248350.0, 3335050.0 ], [ 4248450.0, 3335050.0 ], [ 4248550.0, 3334850.0 ], [ 4247650.0, 3334850.0 ], [ 4247650.0, 3334550.0 ], [ 4247450.0, 3334550.0 ], [ 4247450.0, 3334450.0 ], [ 4247350.0, 3334450.0 ], [ 4247250.0, 3334450.0 ], [ 4247250.0, 3334350.0 ], [ 4247250.0, 3334250.0 ], [ 4247250.0, 3334150.0 ], [ 4247450.0, 3334050.0 ], [ 4247550.0, 3334150.0 ], [ 4247750.0, 3334150.0 ], [ 4247950.0, 3333950.0 ], [ 4247850.0, 3333450.0 ], [ 4248150.0, 3333250.0 ], [ 4248450.0, 3333350.0 ], [ 4248550.0, 3333250.0 ], [ 4248550.0, 3333050.0 ], [ 4249350.0, 3332350.0 ], [ 4249050.0, 3332250.0 ], [ 4249150.0, 3332050.0 ], [ 4249650.0, 3331750.0 ], [ 4249750.0, 3331650.0 ], [ 4249950.0, 3331950.0 ], [ 4250250.0, 3332050.0 ], [ 4250450.0, 3331850.0 ], [ 4250550.0, 3331850.0 ], [ 4250650.0, 3331550.0 ], [ 4250450.0, 3331250.0 ], [ 4250250.0, 3331150.0 ], [ 4250250.0, 3331050.0 ], [ 4250150.0, 3330850.0 ], [ 4250150.0, 3330750.0 ], [ 4250150.0, 3330450.0 ], [ 4250250.0, 3330450.0 ], [ 4250250.0, 3330350.0 ], [ 4250350.0, 3330350.0 ], [ 4250450.0, 3330350.0 ], [ 4250450.0, 3330450.0 ], [ 4250550.0, 3330450.0 ], [ 4250550.0, 3330350.0 ], [ 4250650.0, 3330350.0 ], [ 4250750.0, 3330350.0 ], [ 4250750.0, 3330250.0 ], [ 4250850.0, 3330250.0 ], [ 4250950.0, 3330250.0 ], [ 4250950.0, 3330150.0 ], [ 4250950.0, 3330050.0 ], [ 4250850.0, 3330050.0 ], [ 4250850.0, 3329950.0 ], [ 4250850.0, 3329850.0 ], [ 4251450.0, 3329350.0 ], [ 4251050.0, 3329250.0 ], [ 4251050.0, 3329150.0 ], [ 4251050.0, 3329050.0 ], [ 4250950.0, 3329050.0 ], [ 4250950.0, 3328950.0 ], [ 4250950.0, 3328850.0 ], [ 4250850.0, 3328850.0 ], [ 4250850.0, 3328750.0 ], [ 4250850.0, 3328650.0 ], [ 4250850.0, 3328550.0 ], [ 4251250.0, 3328550.0 ], [ 4251350.0, 3328550.0 ], [ 4251450.0, 3328550.0 ], [ 4251350.0, 3328450.0 ], [ 4251350.0, 3328350.0 ], [ 4251250.0, 3328350.0 ], [ 4251050.0, 3328050.0 ], [ 4250950.0, 3327950.0 ], [ 4250950.0, 3327850.0 ], [ 4250950.0, 3327550.0 ], [ 4250750.0, 3327750.0 ], [ 4250650.0, 3327750.0 ], [ 4250550.0, 3327750.0 ], [ 4250550.0, 3327650.0 ], [ 4250450.0, 3327650.0 ], [ 4250450.0, 3327550.0 ], [ 4250350.0, 3327450.0 ], [ 4250350.0, 3327350.0 ], [ 4250350.0, 3327250.0 ], [ 4250350.0, 3327150.0 ], [ 4250250.0, 3327050.0 ], [ 4250250.0, 3326950.0 ], [ 4250650.0, 3326950.0 ], [ 4250850.0, 3326350.0 ], [ 4250950.0, 3326150.0 ], [ 4250950.0, 3326050.0 ], [ 4250850.0, 3325950.0 ], [ 4250750.0, 3325750.0 ], [ 4250550.0, 3325750.0 ], [ 4250250.0, 3325750.0 ], [ 4250150.0, 3325750.0 ], [ 4250250.0, 3325950.0 ], [ 4250250.0, 3326050.0 ], [ 4250050.0, 3326050.0 ], [ 4250050.0, 3326150.0 ], [ 4250050.0, 3326250.0 ], [ 4249750.0, 3326350.0 ], [ 4249650.0, 3326350.0 ], [ 4249650.0, 3326250.0 ], [ 4249550.0, 3326250.0 ], [ 4249450.0, 3326250.0 ], [ 4249350.0, 3326150.0 ], [ 4249250.0, 3326150.0 ], [ 4249150.0, 3326150.0 ], [ 4249050.0, 3326150.0 ], [ 4248850.0, 3326150.0 ], [ 4248350.0, 3325950.0 ], [ 4248350.0, 3326050.0 ], [ 4248250.0, 3326050.0 ], [ 4248150.0, 3326150.0 ], [ 4247850.0, 3326350.0 ], [ 4247750.0, 3326350.0 ], [ 4247450.0, 3326450.0 ], [ 4247250.0, 3326450.0 ], [ 4247150.0, 3326550.0 ], [ 4247050.0, 3326750.0 ], [ 4246850.0, 3326750.0 ], [ 4246650.0, 3326650.0 ], [ 4246550.0, 3326650.0 ], [ 4246350.0, 3326850.0 ], [ 4246250.0, 3326950.0 ], [ 4244850.0, 3326850.0 ], [ 4244850.0, 3326750.0 ], [ 4244850.0, 3326650.0 ], [ 4244250.0, 3326550.0 ], [ 4244350.0, 3326350.0 ], [ 4244350.0, 3326250.0 ], [ 4244250.0, 3325950.0 ], [ 4244150.0, 3325950.0 ], [ 4244050.0, 3325950.0 ], [ 4243950.0, 3325950.0 ], [ 4243850.0, 3325650.0 ], [ 4243950.0, 3325550.0 ], [ 4243850.0, 3325450.0 ], [ 4243850.0, 3325250.0 ], [ 4243850.0, 3325150.0 ], [ 4243650.0, 3324950.0 ], [ 4243450.0, 3324850.0 ], [ 4243150.0, 3325050.0 ], [ 4243050.0, 3325050.0 ], [ 4242950.0, 3325050.0 ], [ 4242950.0, 3324950.0 ], [ 4242850.0, 3324950.0 ], [ 4242750.0, 3324950.0 ], [ 4242750.0, 3325050.0 ], [ 4242650.0, 3325050.0 ], [ 4242550.0, 3325050.0 ], [ 4242450.0, 3325050.0 ], [ 4242350.0, 3325050.0 ], [ 4242150.0, 3324950.0 ], [ 4242050.0, 3324850.0 ], [ 4241950.0, 3324850.0 ], [ 4241950.0, 3324750.0 ], [ 4241750.0, 3324850.0 ], [ 4241750.0, 3325050.0 ], [ 4241750.0, 3325150.0 ], [ 4241550.0, 3325250.0 ], [ 4241350.0, 3325350.0 ], [ 4241250.0, 3325750.0 ], [ 4241250.0, 3326350.0 ], [ 4241550.0, 3326650.0 ], [ 4241950.0, 3326950.0 ], [ 4241950.0, 3327550.0 ], [ 4241850.0, 3327650.0 ], [ 4241750.0, 3327850.0 ], [ 4241550.0, 3328050.0 ], [ 4241450.0, 3328250.0 ], [ 4241350.0, 3328250.0 ], [ 4241250.0, 3328450.0 ], [ 4240850.0, 3328450.0 ], [ 4240750.0, 3328350.0 ], [ 4240750.0, 3328450.0 ], [ 4240650.0, 3328450.0 ], [ 4240450.0, 3328250.0 ], [ 4240350.0, 3328250.0 ], [ 4240350.0, 3328350.0 ], [ 4240250.0, 3328350.0 ], [ 4240250.0, 3328450.0 ], [ 4240250.0, 3328550.0 ], [ 4240350.0, 3328650.0 ], [ 4240050.0, 3328950.0 ], [ 4239350.0, 3328650.0 ], [ 4239350.0, 3329250.0 ], [ 4239450.0, 3329350.0 ], [ 4239650.0, 3329650.0 ], [ 4239350.0, 3329850.0 ], [ 4238950.0, 3329950.0 ], [ 4238950.0, 3330050.0 ], [ 4238750.0, 3330150.0 ], [ 4239150.0, 3330550.0 ], [ 4238950.0, 3330750.0 ], [ 4238850.0, 3330650.0 ], [ 4238750.0, 3330850.0 ], [ 4238550.0, 3330850.0 ], [ 4238150.0, 3330650.0 ], [ 4238150.0, 3330750.0 ], [ 4238150.0, 3330950.0 ], [ 4238050.0, 3331050.0 ], [ 4238050.0, 3331150.0 ], [ 4237850.0, 3331150.0 ], [ 4237850.0, 3331550.0 ], [ 4237350.0, 3331950.0 ], [ 4237150.0, 3332250.0 ], [ 4237250.0, 3332350.0 ] ] ] } },
{ "type": "Feature", "properties": { "ID": "Bremen_040110000_c2", "GEN": "Bremen", "ARS": "040110000", "LAN": "Bremen", "area": 3.3, "centroid": "POINT (4235636.717172 3327475.050505)", "DH_demand": 95708.873074371426, "total_demand_cells": 79231.118498802185, "total_demand_area": 129145.6640625, "share_DH": 41.077098860158053, "heat_density_DH": 29.002688810415584, "heat_density": 39.135049715909091, "DH_supplied_households": 5522.0, "DH_cells": [ [ 4235950, 3326350 ], [ 4235550, 3326450 ], [ 4235850, 3326450 ], [ 4235950, 3326450 ], [ 4236050, 3326450 ], [ 4235050, 3326550 ], [ 4235150, 3326550 ], [ 4235250, 3326550 ], [ 4235850, 3326550 ], [ 4235950, 3326550 ], [ 4236050, 3326550 ], [ 4236150, 3326550 ], [ 4236250, 3326550 ], [ 4234950, 3326650 ], [ 4235050, 3326650 ], [ 4235150, 3326650 ], [ 4235250, 3326650 ], [ 4235350, 3326650 ], [ 4235450, 3326650 ], [ 4235750, 3326650 ], [ 4236150, 3326650 ], [ 4236250, 3326650 ], [ 4236350, 3326650 ], [ 4236450, 3326650 ], [ 4234950, 3326750 ], [ 4235050, 3326750 ], [ 4235150, 3326750 ], [ 4235250, 3326750 ], [ 4235550, 3326750 ], [ 4235650, 3326750 ], [ 4236050, 3326750 ], [ 4236250, 3326750 ], [ 4236350, 3326750 ], [ 4236850, 3326750 ], [ 4235150, 3326850 ], [ 4235250, 3326850 ], [ 4235350, 3326850 ], [ 4235450, 3326850 ], [ 4235550, 3326850 ], [ 4235650, 3326850 ], [ 4235850, 3326850 ], [ 4236150, 3326850 ], [ 4236250, 3326850 ], [ 4236650, 3326850 ], [ 4236750, 3326850 ], [ 4236850, 3326850 ], [ 4234850, 3326950 ], [ 4235150, 3326950 ], [ 4235250, 3326950 ], [ 4235350, 3326950 ], [ 4235450, 3326950 ], [ 4235550, 3326950 ], [ 4235650, 3326950 ], [ 4235750, 3326950 ], [ 4235850, 3326950 ], [ 4236050, 3326950 ], [ 4236150, 3326950 ], [ 4236250, 3326950 ], [ 4236650, 3326950 ], [ 4236750, 3326950 ], [ 4236850, 3326950 ], [ 4234550, 3327050 ], [ 4234650, 3327050 ], [ 4234750, 3327050 ], [ 4234850, 3327050 ], [ 4234950, 3327050 ], [ 4235150, 3327050 ], [ 4235250, 3327050 ], [ 4235350, 3327050 ], [ 4235450, 3327050 ], [ 4235550, 3327050 ], [ 4235650, 3327050 ], [ 4235850, 3327050 ], [ 4235950, 3327050 ], [ 4236250, 3327050 ], [ 4236550, 3327050 ], [ 4236650, 3327050 ], [ 4236750, 3327050 ], [ 4236850, 3327050 ], [ 4234650, 3327150 ], [ 4234750, 3327150 ], [ 4234850, 3327150 ], [ 4234950, 3327150 ], [ 4235150, 3327150 ], [ 4235250, 3327150 ], [ 4235350, 3327150 ], [ 4235450, 3327150 ], [ 4235550, 3327150 ], [ 4235650, 3327150 ], [ 4235750, 3327150 ], [ 4235850, 3327150 ], [ 4235950, 3327150 ], [ 4236050, 3327150 ], [ 4236150, 3327150 ], [ 4236450, 3327150 ], [ 4236550, 3327150 ], [ 4236650, 3327150 ], [ 4234750, 3327250 ], [ 4234850, 3327250 ], [ 4234950, 3327250 ], [ 4235250, 3327250 ], [ 4235350, 3327250 ], [ 4235450, 3327250 ], [ 4235550, 3327250 ], [ 4234850, 3327350 ], [ 4235050, 3327350 ], [ 4235250, 3327350 ], [ 4235350, 3327350 ], [ 4235950, 3327350 ], [ 4236050, 3327350 ], [ 4236150, 3327350 ], [ 4236250, 3327350 ], [ 4236350, 3327350 ], [ 4235950, 3327450 ], [ 4236050, 3327450 ], [ 4236150, 3327450 ], [ 4236250, 3327450 ], [ 4236350, 3327450 ], [ 4234450, 3327550 ], [ 4234550, 3327550 ], [ 4234650, 3327550 ], [ 4236150, 3327550 ], [ 4236250, 3327550 ], [ 4236650, 3327550 ], [ 4234450, 3327650 ], [ 4234550, 3327650 ], [ 4234650, 3327650 ], [ 4234750, 3327650 ], [ 4234850, 3327650 ], [ 4236250, 3327650 ], [ 4236350, 3327650 ], [ 4234350, 3327750 ], [ 4234450, 3327750 ], [ 4234550, 3327750 ], [ 4234650, 3327750 ], [ 4234750, 3327750 ], [ 4234850, 3327750 ], [ 4234950, 3327750 ], [ 4235950, 3327750 ], [ 4236250, 3327750 ], [ 4236350, 3327750 ], [ 4234450, 3327850 ], [ 4234550, 3327850 ], [ 4234650, 3327850 ], [ 4234750, 3327850 ], [ 4234850, 3327850 ], [ 4234950, 3327850 ], [ 4235050, 3327850 ], [ 4235150, 3327850 ], [ 4234350, 3327950 ], [ 4234450, 3327950 ], [ 4234550, 3327950 ], [ 4234650, 3327950 ], [ 4234750, 3327950 ], [ 4234850, 3327950 ], [ 4234950, 3327950 ], [ 4234450, 3328050 ], [ 4234550, 3328050 ], [ 4234650, 3328050 ], [ 4234950, 3328050 ], [ 4235050, 3328050 ], [ 4235850, 3328050 ], [ 4236250, 3328050 ], [ 4236350, 3328050 ], [ 4236450, 3328050 ], [ 4234850, 3328150 ], [ 4234950, 3328150 ], [ 4235050, 3328150 ], [ 4235150, 3328150 ], [ 4235550, 3328150 ], [ 4236150, 3328150 ], [ 4236250, 3328150 ], [ 4236350, 3328150 ], [ 4236450, 3328150 ], [ 4236550, 3328150 ], [ 4234750, 3328250 ], [ 4234850, 3328250 ], [ 4234950, 3328250 ], [ 4235050, 3328250 ], [ 4235150, 3328250 ], [ 4236050, 3328250 ], [ 4236150, 3328250 ], [ 4236250, 3328250 ], [ 4236350, 3328250 ], [ 4235050, 3328350 ], [ 4236050, 3328350 ], [ 4236150, 3328350 ], [ 4236250, 3328350 ], [ 4234550, 3328450 ], [ 4236050, 3328450 ], [ 4236150, 3328450 ], [ 4236650, 3328450 ], [ 4236850, 3328450 ], [ 4235150, 3328550 ], [ 4235250, 3328550 ], [ 4236650, 3328550 ], [ 4235050, 3328650 ], [ 4235250, 3328650 ], [ 4236650, 3328650 ], [ 4236850, 3328650 ], [ 4236550, 3328750 ], [ 4236750, 3328850 ] ] }, "geometry": { "type": "Polygon", "coordinates": [ [ [ 4234650.0, 3327150.0 ], [ 4234750.0, 3327150.0 ], [ 4234750.0, 3327250.0 ], [ 4234850.0, 3327250.0 ], [ 4234850.0, 3327350.0 ], [ 4234650.0, 3327550.0 ], [ 4234550.0, 3327550.0 ], [ 4234450.0, 3327550.0 ], [ 4234450.0, 3327650.0 ], [ 4234350.0, 3327750.0 ], [ 4234450.0, 3327750.0 ], [ 4234450.0, 3327850.0 ], [ 4234350.0, 3327950.0 ], [ 4234450.0, 3328050.0 ], [ 4234550.0, 3328050.0 ], [ 4234550.0, 3328450.0 ], [ 4234750.0, 3328250.0 ], [ 4234850.0, 3328250.0 ], [ 4234950.0, 3328250.0 ], [ 4235050.0, 3328250.0 ], [ 4235050.0, 3328350.0 ], [ 4235050.0, 3328650.0 ], [ 4235250.0, 3328650.0 ], [ 4235250.0, 3328550.0 ], [ 4235150.0, 3328550.0 ], [ 4235150.0, 3328250.0 ], [ 4235150.0, 3328150.0 ], [ 4235550.0, 3328150.0 ], [ 4235850.0, 3328050.0 ], [ 4236050.0, 3328250.0 ], [ 4236050.0, 3328350.0 ], [ 4236050.0, 3328450.0 ], [ 4236150.0, 3328450.0 ], [ 4236150.0, 3328350.0 ], [ 4236250.0, 3328350.0 ], [ 4236550.0, 3328750.0 ], [ 4236650.0, 3328650.0 ], [ 4236750.0, 3328850.0 ], [ 4236850.0, 3328650.0 ], [ 4236850.0, 3328450.0 ], [ 4236650.0, 3328450.0 ], [ 4236350.0, 3328250.0 ], [ 4236350.0, 3328150.0 ], [ 4236450.0, 3328150.0 ], [ 4236550.0, 3328150.0 ], [ 4236450.0, 3328050.0 ], [ 4236350.0, 3328050.0 ], [ 4236350.0, 3327750.0 ], [ 4236350.0, 3327650.0 ], [ 4236250.0, 3327650.0 ], [ 4236250.0, 3327550.0 ], [ 4236250.0, 3327450.0 ], [ 4236350.0, 3327450.0 ], [ 4236650.0, 3327550.0 ], [ 4236650.0, 3327150.0 ], [ 4236650.0, 3327050.0 ], [ 4236750.0, 3327050.0 ], [ 4236850.0, 3327050.0 ], [ 4236850.0, 3326950.0 ], [ 4236850.0, 3326850.0 ], [ 4236850.0, 3326750.0 ], [ 4236750.0, 3326850.0 ], [ 4236650.0, 3326850.0 ], [ 4236450.0, 3326650.0 ], [ 4236350.0, 3326650.0 ], [ 4236250.0, 3326650.0 ], [ 4236250.0, 3326550.0 ], [ 4236150.0, 3326550.0 ], [ 4236050.0, 3326550.0 ], [ 4236050.0, 3326450.0 ], [ 4235950.0, 3326450.0 ], [ 4235950.0, 3326350.0 ], [ 4235850.0, 3326450.0 ], [ 4235550.0, 3326450.0 ], [ 4235450.0, 3326650.0 ], [ 4235350.0, 3326650.0 ], [ 4235250.0, 3326650.0 ], [ 4235250.0, 3326550.0 ], [ 4235150.0, 3326550.0 ], [ 4235050.0, 3326550.0 ], [ 4235050.0, 3326650.0 ], [ 4234950.0, 3326650.0 ], [ 4234950.0, 3326750.0 ], [ 4234850.0, 3326950.0 ], [ 4234850.0, 3327050.0 ], [ 4234750.0, 3327050.0 ], [ 4234650.0, 3327050.0 ], [ 4234550.0, 3327050.0 ], [ 4234650.0, 3327150.0 ] ] ] } },
{ "type": "Feature", "properties": { "ID": "Bremen_040110000_c3", "GEN": "Bremen", "ARS": "040110000", "LAN": "Bremen", "area": 0.5, "centroid": "POINT (4237991 3328593)", "DH_demand": 600.28939615760078, "total_demand_cells": 1692.0587749481201, "total_demand_area": 12197.23828125, "share_DH": 2.7278881171083764, "heat_density_DH": 1.2005787923152016, "heat_density": 24.3944765625, "DH_supplied_households": 33.0, "DH_cells": [ [ 4238050, 3327950 ], [ 4238250, 3327950 ], [ 4237850, 3328050 ], [ 4237850, 3328150 ], [ 4238250, 3328150 ], [ 4237750, 3328650 ], [ 4238050, 3328650 ], [ 4238350, 3328850 ], [ 4237550, 3328950 ], [ 4238250, 3329150 ] ] }, "geometry": { "type": "Polygon", "coordinates": [ [ [ 4237850.0, 3328150.0 ], [ 4237750.0, 3328650.0 ], [ 4237550.0, 3328950.0 ], [ 4238250.0, 3329150.0 ], [ 4238350.0, 3328850.0 ], [ 4238050.0, 3328650.0 ], [ 4238250.0, 3328150.0 ], [ 4238250.0, 3327950.0 ], [ 4238050.0, 3327950.0 ], [ 4237850.0, 3328050.0 ], [ 4237850.0, 3328150.0 ] ] ] } },
{ "type": "Feature", "properties": { "ID": "Bremen_040110000_c4", "GEN": "Bremen", "ARS": "040110000", "LAN": "Bremen", "area": 8.41, "centroid": "POINT (4239158.69996 3333655.271502)", "DH_demand": 120110.04709966842, "total_demand_cells": 188280.26077389717, "total_demand_area": 534693.0, "share_DH": 12.450942545131136, "heat_density_DH": 14.281812972612178, "heat_density": 63.578240190249701, "DH_supplied_households": 8517.0, "DH_cells": [ [ 4239950, 3331650 ], [ 4240050, 3331650 ], [ 4240350, 3331650 ], [ 4240550, 3331650 ], [ 4239250, 3331750 ], [ 4239850, 3331750 ], [ 4239950, 3331750 ], [ 4240050, 3331750 ], [ 4239850, 3331850 ], [ 4240150, 3331950 ], [ 4241450, 3331950 ], [ 4239750, 3332050 ], [ 4239850, 3332050 ], [ 4240150, 3332050 ], [ 4241050, 3332050 ], [ 4241150, 3332050 ], [ 4239550, 3332150 ], [ 4239850, 3332150 ], [ 4239950, 3332150 ], [ 4240850, 3332150 ], [ 4241250, 3332150 ], [ 4239750, 3332250 ], [ 4240650, 3332250 ], [ 4240850, 3332250 ], [ 4241150, 3332250 ], [ 4238550, 3332350 ], [ 4238650, 3332350 ], [ 4238750, 3332350 ], [ 4239750, 3332350 ], [ 4239850, 3332350 ], [ 4239950, 3332350 ], [ 4241150, 3332350 ], [ 4238350, 3332450 ], [ 4238450, 3332450 ], [ 4238550, 3332450 ], [ 4238650, 3332450 ], [ 4238950, 3332450 ], [ 4239850, 3332450 ], [ 4241550, 3332450 ], [ 4238250, 3332550 ], [ 4238350, 3332550 ], [ 4241550, 3332550 ], [ 4241650, 3332550 ], [ 4238150, 3332650 ], [ 4238250, 3332650 ], [ 4239150, 3332650 ], [ 4239250, 3332650 ], [ 4239950, 3332650 ], [ 4240950, 3332650 ], [ 4241350, 3332650 ], [ 4241650, 3332650 ], [ 4238050, 3332750 ], [ 4238150, 3332750 ], [ 4239950, 3332750 ], [ 4240550, 3332750 ], [ 4240650, 3332750 ], [ 4240750, 3332750 ], [ 4241550, 3332750 ], [ 4241650, 3332750 ], [ 4241950, 3332750 ], [ 4237950, 3332850 ], [ 4239350, 3332850 ], [ 4239450, 3332850 ], [ 4239850, 3332850 ], [ 4240750, 3332850 ], [ 4241350, 3332850 ], [ 4241650, 3332850 ], [ 4242050, 3332850 ], [ 4242150, 3332850 ], [ 4237850, 3332950 ], [ 4237950, 3332950 ], [ 4239350, 3332950 ], [ 4239850, 3332950 ], [ 4240750, 3332950 ], [ 4240950, 3332950 ], [ 4241650, 3332950 ], [ 4242150, 3332950 ], [ 4242250, 3332950 ], [ 4242350, 3332950 ], [ 4237750, 3333050 ], [ 4237850, 3333050 ], [ 4239250, 3333050 ], [ 4239350, 3333050 ], [ 4239750, 3333050 ], [ 4240950, 3333050 ], [ 4241050, 3333050 ], [ 4241150, 3333050 ], [ 4241950, 3333050 ], [ 4242050, 3333050 ], [ 4242150, 3333050 ], [ 4242250, 3333050 ], [ 4242350, 3333050 ], [ 4237650, 3333150 ], [ 4237750, 3333150 ], [ 4237850, 3333150 ], [ 4239150, 3333150 ], [ 4239250, 3333150 ], [ 4240050, 3333150 ], [ 4240150, 3333150 ], [ 4240250, 3333150 ], [ 4240350, 3333150 ], [ 4240950, 3333150 ], [ 4241050, 3333150 ], [ 4241150, 3333150 ], [ 4241650, 3333150 ], [ 4241750, 3333150 ], [ 4241850, 3333150 ], [ 4241950, 3333150 ], [ 4242050, 3333150 ], [ 4242150, 3333150 ], [ 4242250, 3333150 ], [ 4242350, 3333150 ], [ 4237550, 3333250 ], [ 4237650, 3333250 ], [ 4237750, 3333250 ], [ 4237850, 3333250 ], [ 4239150, 3333250 ], [ 4239250, 3333250 ], [ 4240850, 3333250 ], [ 4240950, 3333250 ], [ 4241050, 3333250 ], [ 4241150, 3333250 ], [ 4241650, 3333250 ], [ 4241750, 3333250 ], [ 4241850, 3333250 ], [ 4241950, 3333250 ], [ 4242050, 3333250 ], [ 4242150, 3333250 ], [ 4242250, 3333250 ], [ 4237450, 3333350 ], [ 4237550, 3333350 ], [ 4237650, 3333350 ], [ 4237750, 3333350 ], [ 4239050, 3333350 ], [ 4239850, 3333350 ], [ 4240150, 3333350 ], [ 4241850, 3333350 ], [ 4241950, 3333350 ], [ 4242050, 3333350 ], [ 4237450, 3333450 ], [ 4237550, 3333450 ], [ 4237650, 3333450 ], [ 4240550, 3333450 ], [ 4239050, 3333550 ], [ 4239250, 3333550 ], [ 4240250, 3333550 ], [ 4239450, 3333650 ], [ 4239550, 3333650 ], [ 4238350, 3333950 ], [ 4238950, 3334050 ], [ 4239250, 3334050 ], [ 4238250, 3334150 ], [ 4238450, 3334150 ], [ 4238250, 3334250 ], [ 4238350, 3334250 ], [ 4238450, 3334250 ], [ 4238550, 3334250 ], [ 4238750, 3334250 ], [ 4237750, 3334350 ], [ 4237950, 3334350 ], [ 4238150, 3334350 ], [ 4238350, 3334350 ], [ 4238450, 3334350 ], [ 4238550, 3334350 ], [ 4239050, 3334350 ], [ 4237550, 3334450 ], [ 4237750, 3334450 ], [ 4237850, 3334450 ], [ 4237950, 3334450 ], [ 4237850, 3334550 ], [ 4238150, 3334550 ], [ 4238250, 3334550 ], [ 4237550, 3334650 ], [ 4237650, 3334650 ], [ 4237950, 3334650 ], [ 4238350, 3334650 ], [ 4238750, 3334650 ], [ 4237550, 3334750 ], [ 4238050, 3334750 ], [ 4238650, 3334750 ], [ 4238750, 3334750 ], [ 4237550, 3334850 ], [ 4237650, 3334850 ], [ 4237750, 3334850 ], [ 4237850, 3334850 ], [ 4238150, 3334850 ], [ 4238350, 3334850 ], [ 4238750, 3334850 ], [ 4237650, 3334950 ], [ 4237850, 3334950 ], [ 4238050, 3334950 ], [ 4238150, 3334950 ], [ 4238250, 3334950 ], [ 4238350, 3334950 ], [ 4238450, 3334950 ], [ 4237550, 3335050 ], [ 4237950, 3335050 ], [ 4238150, 3335050 ], [ 4238250, 3335050 ], [ 4238350, 3335050 ], [ 4237850, 3335150 ], [ 4238050, 3335150 ], [ 4238150, 3335150 ], [ 4238250, 3335150 ], [ 4238350, 3335150 ], [ 4237950, 3335250 ], [ 4238050, 3335250 ], [ 4238150, 3335250 ], [ 4238250, 3335250 ], [ 4238350, 3335250 ], [ 4237950, 3335350 ], [ 4238050, 3335350 ], [ 4238150, 3335350 ], [ 4238250, 3335350 ], [ 4238350, 3335350 ], [ 4238550, 3335350 ], [ 4237650, 3335450 ], [ 4238150, 3335450 ], [ 4238550, 3335450 ], [ 4237650, 3335550 ], [ 4237750, 3335550 ], [ 4237950, 3335550 ], [ 4238050, 3335550 ], [ 4237350, 3335650 ], [ 4237650, 3335650 ], [ 4237750, 3335650 ], [ 4237850, 3335650 ], [ 4237950, 3335650 ], [ 4238050, 3335650 ], [ 4238250, 3335650 ], [ 4237150, 3335750 ], [ 4237550, 3335750 ], [ 4237650, 3335750 ], [ 4237750, 3335750 ], [ 4237850, 3335750 ], [ 4237950, 3335750 ], [ 4238050, 3335750 ], [ 4238150, 3335750 ], [ 4237750, 3335850 ], [ 4237850, 3335850 ], [ 4237950, 3335850 ], [ 4238150, 3335850 ], [ 4236750, 3335950 ], [ 4236850, 3335950 ], [ 4236950, 3335950 ], [ 4237150, 3335950 ], [ 4237350, 3335950 ], [ 4237750, 3335950 ], [ 4237850, 3335950 ], [ 4237950, 3335950 ], [ 4238050, 3335950 ], [ 4236650, 3336050 ], [ 4236750, 3336050 ], [ 4236850, 3336050 ], [ 4236950, 3336050 ], [ 4237150, 3336050 ], [ 4237350, 3336050 ], [ 4237450, 3336050 ], [ 4237550, 3336050 ], [ 4237850, 3336050 ], [ 4237950, 3336050 ], [ 4236650, 3336150 ], [ 4236750, 3336150 ], [ 4236850, 3336150 ], [ 4236950, 3336150 ], [ 4237250, 3336150 ], [ 4237350, 3336150 ], [ 4237450, 3336150 ], [ 4237550, 3336150 ], [ 4237950, 3336150 ], [ 4236550, 3336250 ], [ 4236650, 3336250 ], [ 4237250, 3336250 ], [ 4237350, 3336250 ], [ 4236350, 3336350 ], [ 4237350, 3336350 ], [ 4237450, 3336350 ], [ 4237550, 3336350 ], [ 4236250, 3336450 ], [ 4236350, 3336450 ], [ 4236750, 3336450 ], [ 4237450, 3336450 ], [ 4237550, 3336450 ], [ 4235850, 3336550 ], [ 4235950, 3336550 ], [ 4236050, 3336550 ], [ 4236150, 3336550 ], [ 4236250, 3336550 ], [ 4236350, 3336550 ], [ 4236450, 3336550 ], [ 4236550, 3336550 ], [ 4236850, 3336550 ], [ 4235850, 3336650 ], [ 4235950, 3336650 ], [ 4236150, 3336650 ], [ 4236250, 3336650 ], [ 4236350, 3336650 ], [ 4236450, 3336650 ], [ 4236550, 3336650 ], [ 4236550, 3336750 ], [ 4236650, 3336750 ], [ 4236750, 3336750 ], [ 4236450, 3336850 ], [ 4236350, 3336950 ], [ 4236050, 3337150 ], [ 4236150, 3337250 ], [ 4236550, 3337250 ], [ 4235750, 3337350 ], [ 4235850, 3337350 ], [ 4235950, 3337350 ], [ 4236150, 3337350 ], [ 4235950, 3337450 ], [ 4236050, 3337450 ], [ 4236350, 3337450 ], [ 4236750, 3337450 ], [ 4236550, 3337550 ] ] }, "geometry": { "type": "Polygon", "coordinates": [ [ [ 4235850.0, 3336650.0 ], [ 4235950.0, 3336650.0 ], [ 4236150.0, 3336650.0 ], [ 4236250.0, 3336650.0 ], [ 4236350.0, 3336650.0 ], [ 4236450.0, 3336650.0 ], [ 4236550.0, 3336650.0 ], [ 4236550.0, 3336750.0 ], [ 4236450.0, 3336850.0 ], [ 4236350.0, 3336950.0 ], [ 4236150.0, 3337250.0 ], [ 4236050.0, 3337150.0 ], [ 4235750.0, 3337350.0 ], [ 4235850.0, 3337350.0 ], [ 4235950.0, 3337350.0 ], [ 4235950.0, 3337450.0 ], [ 4236050.0, 3337450.0 ], [ 4236150.0, 3337350.0 ], [ 4236350.0, 3337450.0 ], [ 4236550.0, 3337550.0 ], [ 4236750.0, 3337450.0 ], [ 4236550.0, 3337250.0 ], [ 4236650.0, 3336750.0 ], [ 4236750.0, 3336750.0 ], [ 4236850.0, 3336550.0 ], [ 4236750.0, 3336450.0 ], [ 4236750.0, 3336150.0 ], [ 4236850.0, 3336150.0 ], [ 4236950.0, 3336150.0 ], [ 4236950.0, 3336050.0 ], [ 4237150.0, 3336050.0 ], [ 4237250.0, 3336150.0 ], [ 4237250.0, 3336250.0 ], [ 4237350.0, 3336250.0 ], [ 4237350.0, 3336350.0 ], [ 4237450.0, 3336350.0 ], [ 4237450.0, 3336450.0 ], [ 4237550.0, 3336450.0 ], [ 4237550.0, 3336350.0 ], [ 4237550.0, 3336150.0 ], [ 4237550.0, 3336050.0 ], [ 4237750.0, 3335950.0 ], [ 4237850.0, 3335950.0 ], [ 4237850.0, 3336050.0 ], [ 4237950.0, 3336150.0 ], [ 4237950.0, 3336050.0 ], [ 4237950.0, 3335950.0 ], [ 4238050.0, 3335950.0 ], [ 4238150.0, 3335850.0 ], [ 4238150.0, 3335750.0 ], [ 4238250.0, 3335650.0 ], [ 4238050.0, 3335650.0 ], [ 4238050.0, 3335550.0 ], [ 4238150.0, 3335450.0 ], [ 4238150.0, 3335350.0 ], [ 4238250.0, 3335350.0 ], [ 4238350.0, 3335350.0 ], [ 4238550.0, 3335450.0 ], [ 4238550.0, 3335350.0 ], [ 4238350.0, 3335250.0 ], [ 4238350.0, 3335150.0 ], [ 4238350.0, 3335050.0 ], [ 4238350.0, 3334950.0 ], [ 4238450.0, 3334950.0 ], [ 4238750.0, 3334850.0 ], [ 4238750.0, 3334750.0 ], [ 4238750.0, 3334650.0 ], [ 4239050.0, 3334350.0 ], [ 4239250.0, 3334050.0 ], [ 4239450.0, 3333650.0 ], [ 4239550.0, 3333650.0 ], [ 4239850.0, 3333350.0 ], [ 4240150.0, 3333350.0 ], [ 4240250.0, 3333550.0 ], [ 4240550.0, 3333450.0 ], [ 4240850.0, 3333250.0 ], [ 4240950.0, 3333250.0 ], [ 4241050.0, 3333250.0 ], [ 4241150.0, 3333250.0 ], [ 4241650.0, 3333250.0 ], [ 4241750.0, 3333250.0 ], [ 4241850.0, 3333250.0 ], [ 4241850.0, 3333350.0 ], [ 4241950.0, 3333350.0 ], [ 4242050.0, 3333350.0 ], [ 4242050.0, 3333250.0 ], [ 4242150.0, 3333250.0 ], [ 4242250.0, 3333250.0 ], [ 4242250.0, 3333150.0 ], [ 4242350.0, 3333150.0 ], [ 4242350.0, 3333050.0 ], [ 4242350.0, 3332950.0 ], [ 4242250.0, 3332950.0 ], [ 4242150.0, 3332950.0 ], [ 4242150.0, 3332850.0 ], [ 4242050.0, 3332850.0 ], [ 4241950.0, 3332750.0 ], [ 4241650.0, 3332750.0 ], [ 4241650.0, 3332650.0 ], [ 4241650.0, 3332550.0 ], [ 4241550.0, 3332550.0 ], [ 4241550.0, 3332450.0 ], [ 4241450.0, 3331950.0 ], [ 4241250.0, 3332150.0 ], [ 4241150.0, 3332050.0 ], [ 4241050.0, 3332050.0 ], [ 4240850.0, 3332150.0 ], [ 4240850.0, 3332250.0 ], [ 4240650.0, 3332250.0 ], [ 4240550.0, 3331650.0 ], [ 4240350.0, 3331650.0 ], [ 4240050.0, 3331650.0 ], [ 4239950.0, 3331650.0 ], [ 4239950.0, 3331750.0 ], [ 4239850.0, 3331750.0 ], [ 4239850.0, 3331850.0 ], [ 4239850.0, 3332050.0 ], [ 4239750.0, 3332050.0 ], [ 4239550.0, 3332150.0 ], [ 4239250.0, 3331750.0 ], [ 4238950.0, 3332450.0 ], [ 4238750.0, 3332350.0 ], [ 4238650.0, 3332350.0 ], [ 4238550.0, 3332350.0 ], [ 4238550.0, 3332450.0 ], [ 4238450.0, 3332450.0 ], [ 4238350.0, 3332450.0 ], [ 4238350.0, 3332550.0 ], [ 4238250.0, 3332550.0 ], [ 4238250.0, 3332650.0 ], [ 4238150.0, 3332650.0 ], [ 4238150.0, 3332750.0 ], [ 4238050.0, 3332750.0 ], [ 4237950.0, 3332850.0 ], [ 4237950.0, 3332950.0 ], [ 4237850.0, 3332950.0 ], [ 4237850.0, 3333050.0 ], [ 4237750.0, 3333050.0 ], [ 4237750.0, 3333150.0 ], [ 4237650.0, 3333150.0 ], [ 4237650.0, 3333250.0 ], [ 4237550.0, 3333250.0 ], [ 4237550.0, 3333350.0 ], [ 4237450.0, 3333350.0 ], [ 4237450.0, 3333450.0 ], [ 4237550.0, 3333450.0 ], [ 4237650.0, 3333450.0 ], [ 4237650.0, 3333350.0 ], [ 4237750.0, 3333350.0 ], [ 4238350.0, 3333950.0 ], [ 4238250.0, 3334150.0 ], [ 4238250.0, 3334250.0 ], [ 4238150.0, 3334350.0 ], [ 4237950.0, 3334350.0 ], [ 4237750.0, 3334350.0 ], [ 4237750.0, 3334450.0 ], [ 4237550.0, 3334450.0 ], [ 4237550.0, 3334650.0 ], [ 4237550.0, 3334750.0 ], [ 4237550.0, 3334850.0 ], [ 4237650.0, 3334850.0 ], [ 4237650.0, 3334950.0 ], [ 4237550.0, 3335050.0 ], [ 4237650.0, 3335450.0 ], [ 4237650.0, 3335550.0 ], [ 4237650.0, 3335650.0 ], [ 4237650.0, 3335750.0 ], [ 4237550.0, 3335750.0 ], [ 4237350.0, 3335650.0 ], [ 4237150.0, 3335750.0 ], [ 4237150.0, 3335950.0 ], [ 4236950.0, 3335950.0 ], [ 4236850.0, 3335950.0 ], [ 4236750.0, 3335950.0 ], [ 4236750.0, 3336050.0 ], [ 4236650.0, 3336050.0 ], [ 4236650.0, 3336150.0 ], [ 4236650.0, 3336250.0 ], [ 4236550.0, 3336250.0 ], [ 4236350.0, 3336350.0 ], [ 4236350.0, 3336450.0 ], [ 4236250.0, 3336450.0 ], [ 4236250.0, 3336550.0 ], [ 4236150.0, 3336550.0 ], [ 4236050.0, 3336550.0 ], [ 4235950.0, 3336550.0 ], [ 4235850.0, 3336550.0 ], [ 4235850.0, 3336650.0 ] ] ] } },
{ "type": "Feature", "properties": { "ID": "Bremen_040110000_c6", "GEN": "Bremen", "ARS": "040110000", "LAN": "Bremen", "area": 0.14, "centroid": "POINT (4235127.380952 3338177.380952)", "DH_demand": 405.08313453463694, "total_demand_cells": 1417.7366638183594, "total_demand_area": 5336.478515625, "share_DH": 4.2074289114867875, "heat_density_DH": 2.893450960961693, "heat_density": 38.117703683035721, "DH_supplied_households": 18.0, "DH_cells": [ [ 4234950, 3337950 ], [ 4235350, 3337950 ], [ 4235250, 3338050 ], [ 4235350, 3338050 ], [ 4235250, 3338350 ], [ 4235050, 3338550 ] ] }, "geometry": { "type": "Polygon", "coordinates": [ [ [ 4234950.0, 3337950.0 ], [ 4235050.0, 3338550.0 ], [ 4235250.0, 3338350.0 ], [ 4235250.0, 3338050.0 ], [ 4235350.0, 3338050.0 ], [ 4235350.0, 3337950.0 ], [ 4234950.0, 3337950.0 ] ] ] } },
{ "type": "Feature", "properties": { "ID": "Bremen_040110000_c7", "GEN": "Bremen", "ARS": "040110000", "LAN": "Bremen", "area": 0.07, "centroid": "POINT (4234726.190476 3339330.952381)", "DH_demand": 365.55634412236691, "total_demand_cells": 1153.5771026611328, "total_demand_area": 2972.56787109375, "share_DH": 6.8163194594737186, "heat_density_DH": 5.2222334874623852, "heat_density": 42.465255301339297, "DH_supplied_households": 28.0, "DH_cells": [ [ 4234450, 3339250 ], [ 4234850, 3339250 ], [ 4234450, 3339350 ], [ 4234950, 3339350 ], [ 4235050, 3339450 ] ] }, "geometry": { "type": "Polygon", "coordinates": [ [ [ 4234450.0, 3339250.0 ], [ 4234450.0, 3339350.0 ], [ 4235050.0, 3339450.0 ], [ 4234950.0, 3339350.0 ], [ 4234850.0, 3339250.0 ], [ 4234450.0, 3339250.0 ] ] ] } },
{ "type": "Feature", "properties": { "ID": "Bremen_040110000_c8", "GEN": "Bremen", "ARS": "040110000", "LAN": "Bremen", "area": 7.825, "centroid": "POINT (4231192.470714 3341608.125666)", "DH_demand": 54382.29695667675, "total_demand_cells": 60224.048412322998, "total_demand_area": 267638.4375, "share_DH": 11.262542727041572, "heat_density_DH": 6.9498143075625247, "heat_density": 34.202995207667733, "DH_supplied_households": 3038.0, "DH_cells": [ [ 4231250, 3340350 ], [ 4230050, 3340450 ], [ 4230150, 3340450 ], [ 4230250, 3340450 ], [ 4231250, 3340450 ], [ 4231750, 3340450 ], [ 4229950, 3340550 ], [ 4230050, 3340550 ], [ 4230150, 3340550 ], [ 4230250, 3340550 ], [ 4232650, 3340550 ], [ 4232750, 3340550 ], [ 4231350, 3340650 ], [ 4230450, 3340750 ], [ 4234650, 3340750 ], [ 4229350, 3340850 ], [ 4229450, 3340850 ], [ 4229650, 3340850 ], [ 4229950, 3340850 ], [ 4231650, 3340850 ], [ 4232750, 3340850 ], [ 4233150, 3340850 ], [ 4234750, 3340850 ], [ 4228950, 3340950 ], [ 4229350, 3340950 ], [ 4229450, 3340950 ], [ 4229650, 3340950 ], [ 4229850, 3340950 ], [ 4229050, 3341050 ], [ 4232350, 3341050 ], [ 4232850, 3341050 ], [ 4233450, 3341050 ], [ 4233550, 3341050 ], [ 4234750, 3341050 ], [ 4235350, 3341050 ], [ 4235550, 3341050 ], [ 4230450, 3341150 ], [ 4230950, 3341150 ], [ 4232650, 3341150 ], [ 4229950, 3341250 ], [ 4232550, 3341250 ], [ 4232650, 3341250 ], [ 4233250, 3341250 ], [ 4234250, 3341250 ], [ 4234950, 3341250 ], [ 4235750, 3341250 ], [ 4228250, 3341350 ], [ 4229250, 3341350 ], [ 4231650, 3341350 ], [ 4234950, 3341350 ], [ 4235450, 3341350 ], [ 4235550, 3341350 ], [ 4235650, 3341350 ], [ 4228450, 3341450 ], [ 4228550, 3341450 ], [ 4228950, 3341450 ], [ 4230650, 3341450 ], [ 4231150, 3341450 ], [ 4232050, 3341450 ], [ 4233050, 3341450 ], [ 4235150, 3341450 ], [ 4235250, 3341450 ], [ 4235350, 3341450 ], [ 4235450, 3341450 ], [ 4235550, 3341450 ], [ 4235650, 3341450 ], [ 4235750, 3341450 ], [ 4228050, 3341550 ], [ 4228350, 3341550 ], [ 4230550, 3341550 ], [ 4233250, 3341550 ], [ 4234650, 3341550 ], [ 4234850, 3341550 ], [ 4235150, 3341550 ], [ 4235250, 3341550 ], [ 4235350, 3341550 ], [ 4235450, 3341550 ], [ 4235550, 3341550 ], [ 4235650, 3341550 ], [ 4235750, 3341550 ], [ 4228650, 3341650 ], [ 4230250, 3341650 ], [ 4230350, 3341650 ], [ 4230450, 3341650 ], [ 4230550, 3341650 ], [ 4233150, 3341650 ], [ 4234250, 3341650 ], [ 4235150, 3341650 ], [ 4235250, 3341650 ], [ 4235450, 3341650 ], [ 4235550, 3341650 ], [ 4235750, 3341650 ], [ 4235850, 3341650 ], [ 4228650, 3341750 ], [ 4230250, 3341750 ], [ 4230350, 3341750 ], [ 4230450, 3341750 ], [ 4230550, 3341750 ], [ 4230650, 3341750 ], [ 4233150, 3341750 ], [ 4234150, 3341750 ], [ 4234250, 3341750 ], [ 4235050, 3341750 ], [ 4235250, 3341750 ], [ 4235350, 3341750 ], [ 4235450, 3341750 ], [ 4235650, 3341750 ], [ 4235750, 3341750 ], [ 4235850, 3341750 ], [ 4235950, 3341750 ], [ 4228550, 3341850 ], [ 4230250, 3341850 ], [ 4230350, 3341850 ], [ 4230450, 3341850 ], [ 4230550, 3341850 ], [ 4235050, 3341850 ], [ 4235250, 3341850 ], [ 4235350, 3341850 ], [ 4235450, 3341850 ], [ 4235550, 3341850 ], [ 4235650, 3341850 ], [ 4235750, 3341850 ], [ 4235850, 3341850 ], [ 4235950, 3341850 ], [ 4228150, 3341950 ], [ 4230450, 3341950 ], [ 4230550, 3341950 ], [ 4235050, 3341950 ], [ 4235550, 3341950 ], [ 4235650, 3341950 ], [ 4235750, 3341950 ], [ 4235850, 3341950 ], [ 4235950, 3341950 ], [ 4228050, 3342050 ], [ 4228450, 3342050 ], [ 4228850, 3342050 ], [ 4233650, 3342050 ], [ 4235350, 3342050 ], [ 4235550, 3342050 ], [ 4235650, 3342050 ], [ 4235750, 3342050 ], [ 4235850, 3342050 ], [ 4235950, 3342050 ], [ 4227450, 3342150 ], [ 4228450, 3342150 ], [ 4228850, 3342150 ], [ 4229450, 3342150 ], [ 4229950, 3342150 ], [ 4230050, 3342150 ], [ 4235150, 3342150 ], [ 4234050, 3342250 ], [ 4228550, 3342350 ], [ 4227650, 3342450 ], [ 4228650, 3342450 ], [ 4227950, 3342550 ], [ 4230150, 3342550 ], [ 4228750, 3342650 ], [ 4234050, 3342650 ], [ 4228950, 3342750 ], [ 4229350, 3342850 ], [ 4229850, 3342850 ], [ 4229250, 3342950 ], [ 4229450, 3343050 ], [ 4229350, 3343150 ], [ 4229750, 3343350 ], [ 4229550, 3343650 ] ] }, "geometry": { "type": "Polygon", "coordinates": [ [ [ 4228050.0, 3341550.0 ], [ 4228150.0, 3341950.0 ], [ 4228050.0, 3342050.0 ], [ 4227450.0, 3342150.0 ], [ 4227650.0, 3342450.0 ], [ 4227950.0, 3342550.0 ], [ 4228450.0, 3342150.0 ], [ 4228550.0, 3342350.0 ], [ 4228650.0, 3342450.0 ], [ 4228750.0, 3342650.0 ], [ 4228950.0, 3342750.0 ], [ 4229250.0, 3342950.0 ], [ 4229350.0, 3342850.0 ], [ 4229450.0, 3343050.0 ], [ 4229350.0, 3343150.0 ], [ 4229550.0, 3343650.0 ], [ 4229750.0, 3343350.0 ], [ 4229850.0, 3342850.0 ], [ 4230150.0, 3342550.0 ], [ 4230050.0, 3342150.0 ], [ 4230250.0, 3341850.0 ], [ 4230350.0, 3341850.0 ], [ 4230450.0, 3341850.0 ], [ 4230450.0, 3341950.0 ], [ 4230550.0, 3341950.0 ], [ 4230550.0, 3341850.0 ], [ 4230550.0, 3341750.0 ], [ 4230650.0, 3341750.0 ], [ 4230550.0, 3341650.0 ], [ 4230550.0, 3341550.0 ], [ 4230650.0, 3341450.0 ], [ 4231150.0, 3341450.0 ], [ 4231650.0, 3341350.0 ], [ 4232050.0, 3341450.0 ], [ 4232650.0, 3341250.0 ], [ 4233050.0, 3341450.0 ], [ 4233250.0, 3341550.0 ], [ 4233150.0, 3341650.0 ], [ 4233150.0, 3341750.0 ], [ 4233650.0, 3342050.0 ], [ 4234050.0, 3342250.0 ], [ 4234050.0, 3342650.0 ], [ 4234150.0, 3341750.0 ], [ 4234250.0, 3341750.0 ], [ 4234250.0, 3341650.0 ], [ 4234650.0, 3341550.0 ], [ 4234850.0, 3341550.0 ], [ 4235050.0, 3341750.0 ], [ 4235050.0, 3341850.0 ], [ 4235050.0, 3341950.0 ], [ 4235150.0, 3342150.0 ], [ 4235350.0, 3342050.0 ], [ 4235550.0, 3342050.0 ], [ 4235650.0, 3342050.0 ], [ 4235750.0, 3342050.0 ], [ 4235850.0, 3342050.0 ], [ 4235950.0, 3342050.0 ], [ 4235950.0, 3341950.0 ], [ 4235950.0, 3341850.0 ], [ 4235950.0, 3341750.0 ], [ 4235850.0, 3341750.0 ], [ 4235850.0, 3341650.0 ], [ 4235750.0, 3341650.0 ], [ 4235750.0, 3341550.0 ], [ 4235750.0, 3341450.0 ], [ 4235650.0, 3341450.0 ], [ 4235650.0, 3341350.0 ], [ 4235750.0, 3341250.0 ], [ 4235550.0, 3341050.0 ], [ 4235350.0, 3341050.0 ], [ 4235450.0, 3341350.0 ], [ 4235450.0, 3341450.0 ], [ 4235350.0, 3341450.0 ], [ 4235250.0, 3341450.0 ], [ 4235150.0, 3341450.0 ], [ 4234950.0, 3341350.0 ], [ 4234950.0, 3341250.0 ], [ 4234750.0, 3341050.0 ], [ 4234750.0, 3340850.0 ], [ 4234650.0, 3340750.0 ], [ 4234250.0, 3341250.0 ], [ 4233550.0, 3341050.0 ], [ 4233450.0, 3341050.0 ], [ 4233150.0, 3340850.0 ], [ 4232850.0, 3341050.0 ], [ 4232750.0, 3340850.0 ], [ 4232750.0, 3340550.0 ], [ 4232650.0, 3340550.0 ], [ 4232650.0, 3341150.0 ], [ 4232550.0, 3341250.0 ], [ 4232350.0, 3341050.0 ], [ 4231750.0, 3340450.0 ], [ 4231350.0, 3340650.0 ], [ 4231250.0, 3340450.0 ], [ 4231250.0, 3340350.0 ], [ 4230450.0, 3340750.0 ], [ 4230250.0, 3340550.0 ], [ 4230250.0, 3340450.0 ], [ 4230150.0, 3340450.0 ], [ 4230050.0, 3340450.0 ], [ 4230050.0, 3340550.0 ], [ 4229950.0, 3340550.0 ], [ 4229950.0, 3340850.0 ], [ 4229850.0, 3340950.0 ], [ 4229650.0, 3340950.0 ], [ 4229650.0, 3340850.0 ], [ 4229450.0, 3340850.0 ], [ 4229350.0, 3340850.0 ], [ 4229350.0, 3340950.0 ], [ 4228950.0, 3340950.0 ], [ 4229050.0, 3341050.0 ], [ 4229250.0, 3341350.0 ], [ 4228950.0, 3341450.0 ], [ 4228650.0, 3341650.0 ], [ 4228550.0, 3341450.0 ], [ 4228450.0, 3341450.0 ], [ 4228350.0, 3341550.0 ], [ 4228250.0, 3341350.0 ], [ 4228050.0, 3341550.0 ] ] ] } },
{ "type": "Feature", "properties": { "ID": "Bremen_040110000_c9", "GEN": "Bremen", "ARS": "040110000", "LAN": "Bremen", "area": 3.215, "centroid": "POINT (4224974.883359 3344168.092276)", "DH_demand": 15536.626248996459, "total_demand_cells": 21921.719825744629, "total_demand_area": 112839.921875, "share_DH": 7.6317007363806599, "heat_density_DH": 4.8325431567640615, "heat_density": 35.097953926905134, "DH_supplied_households": 970.0, "DH_cells": [ [ 4225450, 3342450 ], [ 4225450, 3342650 ], [ 4225650, 3342650 ], [ 4225450, 3342750 ], [ 4225650, 3342850 ], [ 4225050, 3342950 ], [ 4225550, 3342950 ], [ 4224050, 3343050 ], [ 4224250, 3343050 ], [ 4224350, 3343050 ], [ 4225250, 3343050 ], [ 4225350, 3343050 ], [ 4225550, 3343050 ], [ 4224750, 3343350 ], [ 4224450, 3343450 ], [ 4224950, 3343450 ], [ 4225750, 3343450 ], [ 4224850, 3343550 ], [ 4223850, 3343650 ], [ 4224250, 3343650 ], [ 4223750, 3343850 ], [ 4224950, 3343950 ], [ 4225050, 3343950 ], [ 4225750, 3343950 ], [ 4223550, 3344050 ], [ 4224850, 3344050 ], [ 4224950, 3344050 ], [ 4225050, 3344050 ], [ 4225150, 3344050 ], [ 4223050, 3344150 ], [ 4224750, 3344150 ], [ 4224850, 3344150 ], [ 4225750, 3344150 ], [ 4224550, 3344250 ], [ 4224650, 3344250 ], [ 4224750, 3344250 ], [ 4224950, 3344250 ], [ 4223150, 3344350 ], [ 4223550, 3344350 ], [ 4224450, 3344350 ], [ 4224550, 3344350 ], [ 4224650, 3344350 ], [ 4224750, 3344350 ], [ 4224850, 3344350 ], [ 4222750, 3344450 ], [ 4223050, 3344450 ], [ 4223250, 3344450 ], [ 4224650, 3344450 ], [ 4224750, 3344450 ], [ 4224850, 3344450 ], [ 4222650, 3344550 ], [ 4224750, 3344550 ], [ 4224850, 3344550 ], [ 4225550, 3344550 ], [ 4225750, 3344550 ], [ 4225450, 3344650 ], [ 4225650, 3344750 ], [ 4225850, 3344850 ], [ 4226150, 3344850 ], [ 4226350, 3344850 ], [ 4222450, 3344950 ], [ 4225850, 3344950 ], [ 4225550, 3345050 ], [ 4225950, 3345050 ], [ 4225850, 3345250 ], [ 4226350, 3345350 ], [ 4225850, 3345450 ], [ 4226450, 3345850 ], [ 4226050, 3345950 ], [ 4226550, 3346050 ], [ 4226750, 3346050 ] ] }, "geometry": { "type": "Polygon", "coordinates": [ [ [ 4222450.0, 3344950.0 ], [ 4223250.0, 3344450.0 ], [ 4224450.0, 3344350.0 ], [ 4224550.0, 3344350.0 ], [ 4224650.0, 3344350.0 ], [ 4224650.0, 3344450.0 ], [ 4224750.0, 3344450.0 ], [ 4224750.0, 3344550.0 ], [ 4224850.0, 3344550.0 ], [ 4224850.0, 3344450.0 ], [ 4224850.0, 3344350.0 ], [ 4224950.0, 3344250.0 ], [ 4224850.0, 3344150.0 ], [ 4224850.0, 3344050.0 ], [ 4224950.0, 3344050.0 ], [ 4225050.0, 3344050.0 ], [ 4225150.0, 3344050.0 ], [ 4225450.0, 3344650.0 ], [ 4225550.0, 3344550.0 ], [ 4225650.0, 3344750.0 ], [ 4225550.0, 3345050.0 ], [ 4225850.0, 3344950.0 ], [ 4225950.0, 3345050.0 ], [ 4225850.0, 3345250.0 ], [ 4225850.0, 3345450.0 ], [ 4226050.0, 3345950.0 ], [ 4226450.0, 3345850.0 ], [ 4226550.0, 3346050.0 ], [ 4226750.0, 3346050.0 ], [ 4226350.0, 3345350.0 ], [ 4226350.0, 3344850.0 ], [ 4226150.0, 3344850.0 ], [ 4225850.0, 3344850.0 ], [ 4225750.0, 3344550.0 ], [ 4225750.0, 3344150.0 ], [ 4225750.0, 3343950.0 ], [ 4225750.0, 3343450.0 ], [ 4225550.0, 3343050.0 ], [ 4225550.0, 3342950.0 ], [ 4225650.0, 3342850.0 ], [ 4225650.0, 3342650.0 ], [ 4225450.0, 3342650.0 ], [ 4225450.0, 3342450.0 ], [ 4225350.0, 3343050.0 ], [ 4225250.0, 3343050.0 ], [ 4225050.0, 3342950.0 ], [ 4224950.0, 3343450.0 ], [ 4224850.0, 3343550.0 ], [ 4224750.0, 3343350.0 ], [ 4224450.0, 3343450.0 ], [ 4224350.0, 3343050.0 ], [ 4224250.0, 3343050.0 ], [ 4224050.0, 3343050.0 ], [ 4224250.0, 3343650.0 ], [ 4223850.0, 3343650.0 ], [ 4223750.0, 3343850.0 ], [ 4223550.0, 3344050.0 ], [ 4223550.0, 3344350.0 ], [ 4223050.0, 3344150.0 ], [ 4223150.0, 3344350.0 ], [ 4223050.0, 3344450.0 ], [ 4222750.0, 3344450.0 ], [ 4222650.0, 3344550.0 ], [ 4222450.0, 3344950.0 ] ] ] } },
{ "type": "Feature", "properties": { "ID": "Bremerhaven_040120000_c0", "GEN": "Bremerhaven", "ARS": "040120000", "LAN": "Bremen", "area": 19.345, "centroid": "POINT (4228491.724821 3383107.965021)", "DH_demand": 177961.85929129773, "total_demand_cells": 198530.07526016235, "total_demand_area": 633262.4375, "share_DH": 15.57652572036533, "heat_density_DH": 9.1993724110259869, "heat_density": 32.735199663995864, "DH_supplied_households": 13492.0, "DH_cells": [ [ 4228450, 3377050 ], [ 4228250, 3377150 ], [ 4228350, 3377150 ], [ 4228550, 3377350 ], [ 4228750, 3377450 ], [ 4228750, 3377550 ], [ 4228750, 3377650 ], [ 4227950, 3377750 ], [ 4228150, 3377850 ], [ 4227950, 3377950 ], [ 4228050, 3377950 ], [ 4228350, 3377950 ], [ 4228550, 3378150 ], [ 4228750, 3378150 ], [ 4228550, 3378250 ], [ 4229050, 3378250 ], [ 4229550, 3378250 ], [ 4228150, 3378350 ], [ 4228450, 3378350 ], [ 4229650, 3378350 ], [ 4228450, 3378450 ], [ 4228650, 3378550 ], [ 4228650, 3378650 ], [ 4228350, 3378750 ], [ 4228450, 3378750 ], [ 4227850, 3378850 ], [ 4228050, 3378950 ], [ 4228550, 3378950 ], [ 4228750, 3378950 ], [ 4227650, 3379050 ], [ 4228050, 3379050 ], [ 4227650, 3379350 ], [ 4227550, 3379450 ], [ 4227650, 3379450 ], [ 4230350, 3379450 ], [ 4230450, 3379450 ], [ 4227650, 3379550 ], [ 4230250, 3379550 ], [ 4230350, 3379550 ], [ 4230450, 3379550 ], [ 4227650, 3379650 ], [ 4227850, 3379650 ], [ 4228250, 3379650 ], [ 4228350, 3379650 ], [ 4228450, 3379650 ], [ 4228550, 3379650 ], [ 4228650, 3379650 ], [ 4230250, 3379650 ], [ 4230350, 3379650 ], [ 4227550, 3379750 ], [ 4227650, 3379750 ], [ 4228250, 3379750 ], [ 4228350, 3379750 ], [ 4228450, 3379750 ], [ 4228550, 3379750 ], [ 4228650, 3379750 ], [ 4228750, 3379750 ], [ 4230650, 3379750 ], [ 4227850, 3379850 ], [ 4228050, 3379850 ], [ 4228250, 3379850 ], [ 4228350, 3379850 ], [ 4228450, 3379850 ], [ 4228550, 3379850 ], [ 4228650, 3379850 ], [ 4228750, 3379850 ], [ 4227750, 3379950 ], [ 4228150, 3379950 ], [ 4228250, 3379950 ], [ 4228350, 3379950 ], [ 4228450, 3379950 ], [ 4228550, 3379950 ], [ 4228650, 3379950 ], [ 4230050, 3379950 ], [ 4230450, 3379950 ], [ 4230550, 3379950 ], [ 4227750, 3380050 ], [ 4227850, 3380050 ], [ 4227950, 3380050 ], [ 4228350, 3380050 ], [ 4228450, 3380050 ], [ 4228550, 3380050 ], [ 4229150, 3380050 ], [ 4230450, 3380050 ], [ 4227650, 3380150 ], [ 4228350, 3380150 ], [ 4228450, 3380150 ], [ 4228550, 3380150 ], [ 4228650, 3380150 ], [ 4230450, 3380150 ], [ 4228350, 3380250 ], [ 4228450, 3380250 ], [ 4228550, 3380250 ], [ 4228650, 3380250 ], [ 4229050, 3380250 ], [ 4228050, 3380350 ], [ 4228150, 3380350 ], [ 4228250, 3380350 ], [ 4228350, 3380350 ], [ 4228450, 3380350 ], [ 4228550, 3380350 ], [ 4228650, 3380350 ], [ 4228950, 3380350 ], [ 4230850, 3380350 ], [ 4228150, 3380450 ], [ 4228250, 3380450 ], [ 4228350, 3380650 ], [ 4230550, 3380750 ], [ 4229250, 3380850 ], [ 4227450, 3380950 ], [ 4227750, 3380950 ], [ 4230250, 3380950 ], [ 4229150, 3381050 ], [ 4229350, 3381050 ], [ 4229450, 3381050 ], [ 4229950, 3381050 ], [ 4227950, 3381150 ], [ 4229150, 3381150 ], [ 4229250, 3381150 ], [ 4229350, 3381150 ], [ 4229450, 3381150 ], [ 4230050, 3381150 ], [ 4227450, 3381250 ], [ 4227650, 3381250 ], [ 4229150, 3381250 ], [ 4229250, 3381250 ], [ 4229350, 3381250 ], [ 4229950, 3381250 ], [ 4230150, 3381250 ], [ 4227950, 3381350 ], [ 4228150, 3381350 ], [ 4228650, 3381350 ], [ 4229150, 3381350 ], [ 4229250, 3381350 ], [ 4229350, 3381350 ], [ 4230450, 3381350 ], [ 4228250, 3381450 ], [ 4228650, 3381450 ], [ 4229350, 3381450 ], [ 4227250, 3381550 ], [ 4227950, 3381550 ], [ 4230350, 3381550 ], [ 4227450, 3381650 ], [ 4227850, 3381650 ], [ 4227850, 3381750 ], [ 4227950, 3381750 ], [ 4228450, 3381750 ], [ 4227550, 3381850 ], [ 4227950, 3381850 ], [ 4227550, 3381950 ], [ 4227850, 3381950 ], [ 4227950, 3381950 ], [ 4227850, 3382050 ], [ 4227950, 3382050 ], [ 4227250, 3382150 ], [ 4227750, 3382150 ], [ 4227350, 3382250 ], [ 4227050, 3382350 ], [ 4227150, 3382350 ], [ 4227450, 3382350 ], [ 4228050, 3382350 ], [ 4226750, 3382450 ], [ 4226850, 3382450 ], [ 4227050, 3382450 ], [ 4227150, 3382450 ], [ 4227250, 3382450 ], [ 4227450, 3382450 ], [ 4226750, 3382550 ], [ 4226850, 3382550 ], [ 4226950, 3382550 ], [ 4227050, 3382550 ], [ 4227150, 3382550 ], [ 4227250, 3382550 ], [ 4226650, 3382650 ], [ 4226750, 3382650 ], [ 4226950, 3382650 ], [ 4227050, 3382650 ], [ 4227150, 3382650 ], [ 4226650, 3382750 ], [ 4226850, 3382750 ], [ 4226950, 3382750 ], [ 4227050, 3382750 ], [ 4228050, 3382750 ], [ 4226750, 3382850 ], [ 4226850, 3382850 ], [ 4228050, 3382850 ], [ 4228350, 3382850 ], [ 4226550, 3382950 ], [ 4226650, 3382950 ], [ 4226750, 3382950 ], [ 4226850, 3382950 ], [ 4226450, 3383050 ], [ 4226550, 3383050 ], [ 4226650, 3383050 ], [ 4226750, 3383050 ], [ 4226350, 3383150 ], [ 4226450, 3383150 ], [ 4226550, 3383150 ], [ 4226650, 3383150 ], [ 4226750, 3383150 ], [ 4226850, 3383150 ], [ 4227050, 3383150 ], [ 4228250, 3383150 ], [ 4228450, 3383150 ], [ 4226350, 3383250 ], [ 4226450, 3383250 ], [ 4226650, 3383250 ], [ 4226750, 3383250 ], [ 4226850, 3383250 ], [ 4227050, 3383250 ], [ 4227350, 3383250 ], [ 4226250, 3383350 ], [ 4226450, 3383350 ], [ 4226550, 3383350 ], [ 4226150, 3383450 ], [ 4226250, 3383450 ], [ 4226350, 3383450 ], [ 4226450, 3383450 ], [ 4226550, 3383450 ], [ 4226650, 3383450 ], [ 4226150, 3383550 ], [ 4226350, 3383550 ], [ 4226550, 3383550 ], [ 4226650, 3383550 ], [ 4226350, 3383650 ], [ 4226450, 3383650 ], [ 4226350, 3383750 ], [ 4226450, 3383750 ], [ 4228450, 3383750 ], [ 4226250, 3383850 ], [ 4226350, 3383850 ], [ 4226850, 3383850 ], [ 4226950, 3383850 ], [ 4227050, 3383850 ], [ 4228350, 3383850 ], [ 4226950, 3383950 ], [ 4227050, 3383950 ], [ 4227150, 3383950 ], [ 4227250, 3383950 ], [ 4228250, 3383950 ], [ 4226850, 3384050 ], [ 4227250, 3384050 ], [ 4226750, 3384150 ], [ 4226950, 3384150 ], [ 4226750, 3384250 ], [ 4226850, 3384250 ], [ 4228450, 3384250 ], [ 4226750, 3384350 ], [ 4226950, 3384350 ], [ 4227550, 3384350 ], [ 4228750, 3384350 ], [ 4226450, 3384450 ], [ 4226550, 3384450 ], [ 4226650, 3384450 ], [ 4226750, 3384450 ], [ 4226850, 3384450 ], [ 4227250, 3384450 ], [ 4227950, 3384450 ], [ 4226450, 3384550 ], [ 4226550, 3384550 ], [ 4226650, 3384550 ], [ 4226750, 3384550 ], [ 4226850, 3384550 ], [ 4227250, 3384550 ], [ 4227850, 3384550 ], [ 4226750, 3384650 ], [ 4226850, 3384650 ], [ 4226950, 3384650 ], [ 4227150, 3384650 ], [ 4227350, 3384650 ], [ 4227550, 3384650 ], [ 4228150, 3384650 ], [ 4226750, 3384750 ], [ 4226850, 3384750 ], [ 4226950, 3384750 ], [ 4226750, 3384850 ], [ 4226850, 3384850 ], [ 4227150, 3384850 ], [ 4227050, 3384950 ], [ 4227350, 3384950 ], [ 4226950, 3385050 ], [ 4227050, 3385050 ], [ 4227150, 3385050 ], [ 4227950, 3385050 ], [ 4226950, 3385150 ], [ 4227050, 3385150 ], [ 4227150, 3385150 ], [ 4227250, 3385150 ], [ 4227550, 3385150 ], [ 4228050, 3385150 ], [ 4227050, 3385250 ], [ 4227150, 3385250 ], [ 4227250, 3385250 ], [ 4227850, 3385250 ], [ 4228050, 3385250 ], [ 4228150, 3385250 ], [ 4228250, 3385250 ], [ 4227250, 3385350 ], [ 4228050, 3385350 ], [ 4228150, 3385350 ], [ 4228250, 3385350 ], [ 4228050, 3385450 ], [ 4228150, 3385450 ], [ 4228250, 3385450 ], [ 4227650, 3385550 ], [ 4228150, 3385550 ], [ 4229050, 3385550 ], [ 4227550, 3385650 ], [ 4228050, 3385650 ], [ 4228350, 3385650 ], [ 4228950, 3385650 ], [ 4227550, 3385750 ], [ 4227950, 3385750 ], [ 4228950, 3385750 ], [ 4227550, 3385850 ], [ 4227550, 3385950 ], [ 4227850, 3385950 ], [ 4228850, 3385950 ], [ 4229050, 3385950 ], [ 4228150, 3386050 ], [ 4228650, 3386050 ], [ 4228850, 3386050 ], [ 4228950, 3386050 ], [ 4227750, 3386150 ], [ 4227850, 3386150 ], [ 4227950, 3386150 ], [ 4228350, 3386150 ], [ 4227650, 3386250 ], [ 4227850, 3386250 ], [ 4227950, 3386250 ], [ 4228550, 3386250 ], [ 4228850, 3386250 ], [ 4228950, 3386250 ], [ 4227850, 3386350 ], [ 4227950, 3386350 ], [ 4228050, 3386350 ], [ 4228850, 3386350 ], [ 4227350, 3386450 ], [ 4227450, 3386450 ], [ 4227850, 3386450 ], [ 4227950, 3386450 ], [ 4228050, 3386450 ], [ 4228950, 3386450 ], [ 4229050, 3386450 ], [ 4227950, 3386550 ], [ 4228050, 3386550 ], [ 4228350, 3386550 ], [ 4228550, 3386550 ], [ 4228750, 3386550 ], [ 4228850, 3386550 ], [ 4227550, 3386650 ], [ 4227750, 3386650 ], [ 4227850, 3386650 ], [ 4228050, 3386650 ], [ 4228350, 3386650 ], [ 4228850, 3386650 ], [ 4228950, 3386650 ], [ 4229050, 3386750 ], [ 4227850, 3386850 ], [ 4227950, 3386850 ], [ 4228050, 3386850 ], [ 4228450, 3386850 ], [ 4226750, 3386950 ], [ 4226850, 3386950 ], [ 4227050, 3386950 ], [ 4227950, 3386950 ], [ 4228050, 3386950 ], [ 4228450, 3386950 ], [ 4228550, 3386950 ], [ 4228650, 3386950 ], [ 4226750, 3387050 ], [ 4226850, 3387050 ], [ 4227050, 3387050 ], [ 4227150, 3387050 ], [ 4227050, 3387150 ], [ 4227150, 3387150 ], [ 4227250, 3387150 ], [ 4227850, 3387150 ], [ 4229350, 3387150 ], [ 4229450, 3387150 ], [ 4226750, 3387250 ], [ 4227350, 3387250 ], [ 4228450, 3387250 ], [ 4228550, 3387250 ], [ 4229250, 3387250 ], [ 4229350, 3387250 ], [ 4229450, 3387250 ], [ 4229550, 3387250 ], [ 4229650, 3387250 ], [ 4226650, 3387350 ], [ 4227350, 3387350 ], [ 4228450, 3387350 ], [ 4229150, 3387350 ], [ 4229250, 3387350 ], [ 4229350, 3387350 ], [ 4229450, 3387350 ], [ 4229750, 3387350 ], [ 4227150, 3387450 ], [ 4228250, 3387450 ], [ 4228350, 3387450 ], [ 4229150, 3387450 ], [ 4229250, 3387450 ], [ 4229350, 3387450 ], [ 4229450, 3387450 ], [ 4229550, 3387450 ], [ 4229650, 3387450 ], [ 4228850, 3387550 ], [ 4228950, 3387550 ], [ 4229150, 3387550 ], [ 4229450, 3387550 ], [ 4229550, 3387550 ], [ 4229650, 3387550 ], [ 4228050, 3387650 ], [ 4229050, 3387650 ], [ 4229150, 3387650 ], [ 4229250, 3387650 ], [ 4229550, 3387650 ], [ 4229650, 3387650 ], [ 4229750, 3387650 ], [ 4229850, 3387650 ], [ 4229950, 3387650 ], [ 4228950, 3387750 ], [ 4229050, 3387750 ], [ 4229150, 3387750 ], [ 4229250, 3387750 ], [ 4229650, 3387750 ], [ 4229750, 3387750 ], [ 4229850, 3387750 ], [ 4229950, 3387750 ], [ 4227750, 3387850 ], [ 4228950, 3387850 ], [ 4229050, 3387850 ], [ 4229150, 3387850 ], [ 4229250, 3387850 ], [ 4229750, 3387850 ], [ 4229850, 3387850 ], [ 4229950, 3387850 ], [ 4230050, 3387850 ], [ 4227950, 3387950 ], [ 4228250, 3387950 ], [ 4228350, 3387950 ], [ 4228950, 3387950 ], [ 4229250, 3387950 ], [ 4229350, 3387950 ], [ 4229650, 3387950 ], [ 4229750, 3387950 ], [ 4229850, 3387950 ], [ 4229950, 3387950 ], [ 4230050, 3387950 ], [ 4230150, 3387950 ], [ 4228050, 3388050 ], [ 4228250, 3388050 ], [ 4228350, 3388050 ], [ 4228450, 3388050 ], [ 4228650, 3388050 ], [ 4229250, 3388050 ], [ 4229550, 3388050 ], [ 4229650, 3388050 ], [ 4229750, 3388050 ], [ 4229850, 3388050 ], [ 4229950, 3388050 ], [ 4230050, 3388050 ], [ 4230150, 3388050 ], [ 4230250, 3388050 ], [ 4228050, 3388150 ], [ 4228250, 3388150 ], [ 4228350, 3388150 ], [ 4228450, 3388150 ], [ 4229550, 3388150 ], [ 4229650, 3388150 ], [ 4229750, 3388150 ], [ 4229850, 3388150 ], [ 4229950, 3388150 ], [ 4230050, 3388150 ], [ 4230150, 3388150 ], [ 4230250, 3388150 ], [ 4228250, 3388250 ], [ 4228350, 3388250 ], [ 4229050, 3388250 ], [ 4229350, 3388250 ], [ 4229550, 3388250 ], [ 4229650, 3388250 ], [ 4229750, 3388250 ], [ 4229850, 3388250 ], [ 4228450, 3388350 ], [ 4229150, 3388350 ], [ 4229650, 3388350 ], [ 4229750, 3388350 ], [ 4229850, 3388350 ], [ 4230450, 3388350 ], [ 4228550, 3388450 ], [ 4228950, 3388450 ], [ 4229250, 3388450 ], [ 4230650, 3388550 ], [ 4228850, 3388650 ], [ 4230250, 3388650 ], [ 4230350, 3388650 ], [ 4230950, 3388650 ], [ 4229150, 3388750 ], [ 4230150, 3388750 ], [ 4229050, 3388850 ], [ 4230250, 3388850 ], [ 4230650, 3388850 ], [ 4229950, 3388950 ], [ 4230950, 3388950 ], [ 4230250, 3389050 ], [ 4230550, 3389050 ], [ 4230750, 3389050 ], [ 4230850, 3389050 ], [ 4230950, 3389150 ] ] }, "geometry": { "type": "Polygon", "coordinates": [ [ [ 4227950.0, 3377950.0 ], [ 4228050.0, 3377950.0 ], [ 4228150.0, 3378350.0 ], [ 4228450.0, 3378350.0 ], [ 4228450.0, 3378450.0 ], [ 4228450.0, 3378750.0 ], [ 4228350.0, 3378750.0 ], [ 4228050.0, 3378950.0 ], [ 4227850.0, 3378850.0 ], [ 4227650.0, 3379050.0 ], [ 4227650.0, 3379350.0 ], [ 4227650.0, 3379450.0 ], [ 4227550.0, 3379450.0 ], [ 4227650.0, 3379550.0 ], [ 4227650.0, 3379650.0 ], [ 4227650.0, 3379750.0 ], [ 4227550.0, 3379750.0 ], [ 4227750.0, 3379950.0 ], [ 4227750.0, 3380050.0 ], [ 4227650.0, 3380150.0 ], [ 4228050.0, 3380350.0 ], [ 4228150.0, 3380350.0 ], [ 4228150.0, 3380450.0 ], [ 4228250.0, 3380450.0 ], [ 4228350.0, 3380650.0 ], [ 4227950.0, 3381150.0 ], [ 4227750.0, 3380950.0 ], [ 4227450.0, 3380950.0 ], [ 4227450.0, 3381250.0 ], [ 4227250.0, 3381550.0 ], [ 4227450.0, 3381650.0 ], [ 4227550.0, 3381850.0 ], [ 4227550.0, 3381950.0 ], [ 4227250.0, 3382150.0 ], [ 4227350.0, 3382250.0 ], [ 4227450.0, 3382350.0 ], [ 4227450.0, 3382450.0 ], [ 4227250.0, 3382450.0 ], [ 4227150.0, 3382450.0 ], [ 4227150.0, 3382350.0 ], [ 4227050.0, 3382350.0 ], [ 4227050.0, 3382450.0 ], [ 4227050.0, 3382550.0 ], [ 4226950.0, 3382550.0 ], [ 4226850.0, 3382550.0 ], [ 4226850.0, 3382450.0 ], [ 4226750.0, 3382450.0 ], [ 4226750.0, 3382550.0 ], [ 4226750.0, 3382650.0 ], [ 4226650.0, 3382650.0 ], [ 4226650.0, 3382750.0 ], [ 4226750.0, 3382850.0 ], [ 4226750.0, 3382950.0 ], [ 4226650.0, 3382950.0 ], [ 4226550.0, 3382950.0 ], [ 4226550.0, 3383050.0 ], [ 4226450.0, 3383050.0 ], [ 4226450.0, 3383150.0 ], [ 4226350.0, 3383150.0 ], [ 4226350.0, 3383250.0 ], [ 4226250.0, 3383350.0 ], [ 4226250.0, 3383450.0 ], [ 4226150.0, 3383450.0 ], [ 4226150.0, 3383550.0 ], [ 4226350.0, 3383550.0 ], [ 4226350.0, 3383650.0 ], [ 4226350.0, 3383750.0 ], [ 4226350.0, 3383850.0 ], [ 4226250.0, 3383850.0 ], [ 4226750.0, 3384150.0 ], [ 4226750.0, 3384250.0 ], [ 4226750.0, 3384350.0 ], [ 4226750.0, 3384450.0 ], [ 4226650.0, 3384450.0 ], [ 4226550.0, 3384450.0 ], [ 4226450.0, 3384450.0 ], [ 4226450.0, 3384550.0 ], [ 4226550.0, 3384550.0 ], [ 4226650.0, 3384550.0 ], [ 4226750.0, 3384550.0 ], [ 4226750.0, 3384650.0 ], [ 4226750.0, 3384750.0 ], [ 4226750.0, 3384850.0 ], [ 4226850.0, 3384850.0 ], [ 4226850.0, 3384750.0 ], [ 4226950.0, 3384750.0 ], [ 4227150.0, 3384850.0 ], [ 4227050.0, 3384950.0 ], [ 4227050.0, 3385050.0 ], [ 4226950.0, 3385050.0 ], [ 4226950.0, 3385150.0 ], [ 4227050.0, 3385150.0 ], [ 4227050.0, 3385250.0 ], [ 4227150.0, 3385250.0 ], [ 4227250.0, 3385250.0 ], [ 4227250.0, 3385350.0 ], [ 4227550.0, 3385650.0 ], [ 4227550.0, 3385750.0 ], [ 4227550.0, 3385850.0 ], [ 4227550.0, 3385950.0 ], [ 4227750.0, 3386150.0 ], [ 4227650.0, 3386250.0 ], [ 4227450.0, 3386450.0 ], [ 4227350.0, 3386450.0 ], [ 4227550.0, 3386650.0 ], [ 4227150.0, 3387050.0 ], [ 4227050.0, 3387050.0 ], [ 4227050.0, 3386950.0 ], [ 4226850.0, 3386950.0 ], [ 4226750.0, 3386950.0 ], [ 4226750.0, 3387050.0 ], [ 4226750.0, 3387250.0 ], [ 4226650.0, 3387350.0 ], [ 4227050.0, 3387150.0 ], [ 4227150.0, 3387150.0 ], [ 4227150.0, 3387450.0 ], [ 4227350.0, 3387350.0 ], [ 4227750.0, 3387850.0 ], [ 4227950.0, 3387950.0 ], [ 4228050.0, 3388050.0 ], [ 4228050.0, 3388150.0 ], [ 4228250.0, 3388150.0 ], [ 4228250.0, 3388250.0 ], [ 4228350.0, 3388250.0 ], [ 4228450.0, 3388350.0 ], [ 4228550.0, 3388450.0 ], [ 4228950.0, 3388450.0 ], [ 4228850.0, 3388650.0 ], [ 4229050.0, 3388850.0 ], [ 4229150.0, 3388750.0 ], [ 4229250.0, 3388450.0 ], [ 4229150.0, 3388350.0 ], [ 4229350.0, 3388250.0 ], [ 4229550.0, 3388250.0 ], [ 4229650.0, 3388250.0 ], [ 4229650.0, 3388350.0 ], [ 4229750.0, 3388350.0 ], [ 4229850.0, 3388350.0 ], [ 4229950.0, 3388950.0 ], [ 4230150.0, 3388750.0 ], [ 4230250.0, 3388850.0 ], [ 4230250.0, 3389050.0 ], [ 4230550.0, 3389050.0 ], [ 4230750.0, 3389050.0 ], [ 4230850.0, 3389050.0 ], [ 4230950.0, 3389150.0 ], [ 4230950.0, 3388950.0 ], [ 4230950.0, 3388650.0 ], [ 4230650.0, 3388550.0 ], [ 4230450.0, 3388350.0 ], [ 4230250.0, 3388150.0 ], [ 4230250.0, 3388050.0 ], [ 4230150.0, 3388050.0 ], [ 4230150.0, 3387950.0 ], [ 4230050.0, 3387950.0 ], [ 4230050.0, 3387850.0 ], [ 4229950.0, 3387850.0 ], [ 4229950.0, 3387750.0 ], [ 4229950.0, 3387650.0 ], [ 4229850.0, 3387650.0 ], [ 4229750.0, 3387650.0 ], [ 4229650.0, 3387650.0 ], [ 4229650.0, 3387550.0 ], [ 4229650.0, 3387450.0 ], [ 4229750.0, 3387350.0 ], [ 4229650.0, 3387250.0 ], [ 4229550.0, 3387250.0 ], [ 4229450.0, 3387250.0 ], [ 4229450.0, 3387150.0 ], [ 4229350.0, 3387150.0 ], [ 4229050.0, 3386750.0 ], [ 4228950.0, 3386650.0 ], [ 4228850.0, 3386650.0 ], [ 4228850.0, 3386550.0 ], [ 4228950.0, 3386450.0 ], [ 4229050.0, 3386450.0 ], [ 4228850.0, 3386350.0 ], [ 4228850.0, 3386250.0 ], [ 4228950.0, 3386250.0 ], [ 4228950.0, 3386050.0 ], [ 4229050.0, 3385950.0 ], [ 4228950.0, 3385750.0 ], [ 4228950.0, 3385650.0 ], [ 4229050.0, 3385550.0 ], [ 4228350.0, 3385650.0 ], [ 4228150.0, 3385550.0 ], [ 4228150.0, 3385450.0 ], [ 4228250.0, 3385450.0 ], [ 4228250.0, 3385350.0 ], [ 4228250.0, 3385250.0 ], [ 4228150.0, 3385250.0 ], [ 4228050.0, 3385250.0 ], [ 4228050.0, 3385150.0 ], [ 4227950.0, 3385050.0 ], [ 4227550.0, 3384650.0 ], [ 4227850.0, 3384550.0 ], [ 4227950.0, 3384450.0 ], [ 4228150.0, 3384650.0 ], [ 4228750.0, 3384350.0 ], [ 4228450.0, 3384250.0 ], [ 4228250.0, 3383950.0 ], [ 4228350.0, 3383850.0 ], [ 4228450.0, 3383750.0 ], [ 4228450.0, 3383150.0 ], [ 4228250.0, 3383150.0 ], [ 4228350.0, 3382850.0 ], [ 4228050.0, 3382850.0 ], [ 4228050.0, 3382750.0 ], [ 4228050.0, 3382350.0 ], [ 4227750.0, 3382150.0 ], [ 4227850.0, 3382050.0 ], [ 4227950.0, 3382050.0 ], [ 4227950.0, 3381950.0 ], [ 4227950.0, 3381850.0 ], [ 4227950.0, 3381750.0 ], [ 4228450.0, 3381750.0 ], [ 4228650.0, 3381450.0 ], [ 4228650.0, 3381350.0 ], [ 4229150.0, 3381350.0 ], [ 4229250.0, 3381350.0 ], [ 4229350.0, 3381450.0 ], [ 4229350.0, 3381350.0 ], [ 4229350.0, 3381250.0 ], [ 4229350.0, 3381150.0 ], [ 4229450.0, 3381150.0 ], [ 4229450.0, 3381050.0 ], [ 4229950.0, 3381050.0 ], [ 4229950.0, 3381250.0 ], [ 4230350.0, 3381550.0 ], [ 4230450.0, 3381350.0 ], [ 4230150.0, 3381250.0 ], [ 4230050.0, 3381150.0 ], [ 4230250.0, 3380950.0 ], [ 4230550.0, 3380750.0 ], [ 4230850.0, 3380350.0 ], [ 4230450.0, 3380150.0 ], [ 4230450.0, 3380050.0 ], [ 4230450.0, 3379950.0 ], [ 4230550.0, 3379950.0 ], [ 4230650.0, 3379750.0 ], [ 4230450.0, 3379550.0 ], [ 4230450.0, 3379450.0 ], [ 4230350.0, 3379450.0 ], [ 4229650.0, 3378350.0 ], [ 4229550.0, 3378250.0 ], [ 4229050.0, 3378250.0 ], [ 4228750.0, 3378150.0 ], [ 4228750.0, 3377650.0 ], [ 4228750.0, 3377550.0 ], [ 4228750.0, 3377450.0 ], [ 4228550.0, 3377350.0 ], [ 4228450.0, 3377050.0 ], [ 4228350.0, 3377150.0 ], [ 4228250.0, 3377150.0 ], [ 4227950.0, 3377750.0 ], [ 4227950.0, 3377950.0 ] ] ] } }
]
}
